{
  "type": "FeatureCollection",
  "features": [
    {
      "type": "Feature",
      "properties": {
        "id": 3,
        "Subzona": "1M",
        "Zona": 1,
        "name": "1M",
        "color": "#0288d1",
        "fillColor": "#0288d1",
        "fillOpacity": 0.3
      },
      "geometry": {
        "type": "Polygon",
        "coordinates": [
          [
            [
              -60.66146808279589,
              -32.92450245741923
            ],
            [
              -60.66159507752231,
              -32.92493909957756
            ],
            [
              -60.662568790517064,
              -32.92828683529863
            ],
            [
              -60.66293980756657,
              -32.928432696300455
            ],
            [
              -60.66321146136689,
              -32.92874046095842
            ],
            [
              -60.66331166309736,
              -32.92913976946221
            ],
            [
              -60.66314885454831,
              -32.92949907768096
            ],
            [
              -60.662747375043196,
              -32.929798945485004
            ],
            [
              -60.66208381813984,
              -32.92982972545575
            ],
            [
              -60.66248439735702,
              -32.93100097779683
            ],
            [
              -60.66310772539077,
              -32.93123703587854
            ],
            [
              -60.67169031095754,
              -32.93319700928231
            ],
            [
              -60.677740680266346,
              -32.93256168840555
            ],
            [
              -60.67783664300439,
              -32.93255158546486
            ],
            [
              -60.69312787554188,
              -32.930940757949294
            ],
            [
              -60.69352791466066,
              -32.92045466053146
            ],
            [
              -60.69353758261572,
              -32.92037676907597
            ],
            [
              -60.69355020200635,
              -32.92031621837606
            ],
            [
              -60.69355780143639,
              -32.9202719792356
            ],
            [
              -60.693566108048834,
              -32.92021760837989
            ],
            [
              -60.69358574143977,
              -32.920123032040586
            ],
            [
              -60.69360030412167,
              -32.92005091411338
            ],
            [
              -60.69361038541398,
              -32.91999257573166
            ],
            [
              -60.69362864045182,
              -32.919880471060225
            ],
            [
              -60.69364704374163,
              -32.91979099275638
            ],
            [
              -60.69365853570094,
              -32.91974257864101
            ],
            [
              -60.693667884241314,
              -32.919689303935314
            ],
            [
              -60.69367761361626,
              -32.919647318560074
            ],
            [
              -60.69369600028308,
              -32.919579797981726
            ],
            [
              -60.69372384216998,
              -32.919498907199596
            ],
            [
              -60.69376181314826,
              -32.919376901277936
            ],
            [
              -60.69379291681408,
              -32.919278360997765
            ],
            [
              -60.69384653791678,
              -32.91911472491833
            ],
            [
              -60.694114507607885,
              -32.91832077807116
            ],
            [
              -60.69466958405813,
              -32.91730327475939
            ],
            [
              -60.69526997287169,
              -32.91647595036026
            ],
            [
              -60.695893017866894,
              -32.91575322386705
            ],
            [
              -60.696346141499745,
              -32.915315781280604
            ],
            [
              -60.69872504057226,
              -32.91329020373154
            ],
            [
              -60.68717038793425,
              -32.912957357916234
            ],
            [
              -60.68684753734584,
              -32.914008195442854
            ],
            [
              -60.68649636653037,
              -32.914531232095875
            ],
            [
              -60.68595261817093,
              -32.914283978790536
            ],
            [
              -60.68402684273125,
              -32.91276715974555
            ],
            [
              -60.683522742689696,
              -32.91255794128583
            ],
            [
              -60.68324520446456,
              -32.912377252218135
            ],
            [
              -60.68288836960368,
              -32.91226313261692
            ],
            [
              -60.68219735606357,
              -32.91219656278163
            ],
            [
              -60.68170458411285,
              -32.91223460269366
            ],
            [
              -60.68116649979882,
              -32.91233921236743
            ],
            [
              -60.680753024483835,
              -32.91233445738494
            ],
            [
              -60.68036220535049,
              -32.912377252218135
            ],
            [
              -60.68025458848769,
              -32.91213712538636
            ],
            [
              -60.68001669858043,
              -32.91196119046252
            ],
            [
              -60.679764648559654,
              -32.9119183954282
            ],
            [
              -60.67938515751714,
              -32.91193028293981
            ],
            [
              -60.67913593951905,
              -32.91210621792508
            ],
            [
              -60.678779104658176,
              -32.91222033772856
            ],
            [
              -60.67808809111807,
              -32.91233445738494
            ],
            [
              -60.677804888847525,
              -32.91228215256068
            ],
            [
              -60.67738008544172,
              -32.91225837763036
            ],
            [
              -60.676898641581815,
              -32.91218705280108
            ],
            [
              -60.676570126947965,
              -32.9121680328369
            ],
            [
              -60.67614532354217,
              -32.91206817795789
            ],
            [
              -60.67556759091026,
              -32.91222984770554
            ],
            [
              -60.67557325495567,
              -32.9118351828022
            ],
            [
              -60.67253799999997,
              -32.911964999992485
            ],
            [
              -60.671948,
              -32.9134749999925
            ],
            [
              -60.67106499999996,
              -32.91416499999249
            ],
            [
              -60.66688199999995,
              -32.92041699999251
            ],
            [
              -60.660708917474516,
              -32.923858885514015
            ],
            [
              -60.66146808279589,
              -32.92450245741923
            ]
          ]
        ]
      }
    },
    {
      "type": "Feature",
      "properties": {
        "id": 4,
        "Subzona": "1A",
        "Zona": 1,
        "name": "1A",
        "color": "#fbc02d",
        "fillColor": "#fbc02d",
        "fillOpacity": 0.3
      },
      "geometry": {
        "type": "Polygon",
        "coordinates": [
          [
            [
              -60.67253799999997,
              -32.911964999992485
            ],
            [
              -60.67557325495567,
              -32.9118351828022
            ],
            [
              -60.67556759091026,
              -32.91222984770554
            ],
            [
              -60.67614532354217,
              -32.91206817795789
            ],
            [
              -60.676570126947965,
              -32.9121680328369
            ],
            [
              -60.676898641581815,
              -32.91218705280108
            ],
            [
              -60.67738008544172,
              -32.91225837763036
            ],
            [
              -60.677804888847525,
              -32.91228215256068
            ],
            [
              -60.67808809111807,
              -32.91233445738494
            ],
            [
              -60.678779104658176,
              -32.91222033772856
            ],
            [
              -60.67913593951905,
              -32.91210621792508
            ],
            [
              -60.67938515751714,
              -32.91193028293981
            ],
            [
              -60.679764648559654,
              -32.9119183954282
            ],
            [
              -60.68001669858043,
              -32.91196119046252
            ],
            [
              -60.68025458848769,
              -32.91213712538636
            ],
            [
              -60.68036220535049,
              -32.912377252218135
            ],
            [
              -60.680753024483835,
              -32.91233445738494
            ],
            [
              -60.68116649979882,
              -32.91233921236743
            ],
            [
              -60.68170458411285,
              -32.91223460269366
            ],
            [
              -60.68219735606357,
              -32.91219656278163
            ],
            [
              -60.68288836960368,
              -32.91226313261692
            ],
            [
              -60.68324520446456,
              -32.912377252218135
            ],
            [
              -60.683522742689696,
              -32.91255794128583
            ],
            [
              -60.68402684273125,
              -32.91276715974555
            ],
            [
              -60.68595261817093,
              -32.914283978790536
            ],
            [
              -60.68649636653037,
              -32.914531232095875
            ],
            [
              -60.68684753734584,
              -32.914008195442854
            ],
            [
              -60.68717038793425,
              -32.912957357916234
            ],
            [
              -60.68902784082726,
              -32.90693746190759
            ],
            [
              -60.692484999999955,
              -32.907078999992535
            ],
            [
              -60.69421899999998,
              -32.90711999999249
            ],
            [
              -60.698384452073405,
              -32.89501953550205
            ],
            [
              -60.70495092983086,
              -32.87565598762871
            ],
            [
              -60.70656842716903,
              -32.871178341588326
            ],
            [
              -60.69926799999996,
              -32.870874999992495
            ],
            [
              -60.69799899999997,
              -32.87120499999251
            ],
            [
              -60.692752999999975,
              -32.87053099999249
            ],
            [
              -60.691786999999955,
              -32.86959799999249
            ],
            [
              -60.69117800000001,
              -32.869249999992505
            ],
            [
              -60.68974399999993,
              -32.869448999992514
            ],
            [
              -60.688201000000014,
              -32.87007899999251
            ],
            [
              -60.68754699999996,
              -32.873414999992505
            ],
            [
              -60.68718399999996,
              -32.87470199999252
            ],
            [
              -60.68756499999996,
              -32.87525699999253
            ],
            [
              -60.68691299999993,
              -32.87636099999251
            ],
            [
              -60.68678399999996,
              -32.87675999999251
            ],
            [
              -60.68659399999997,
              -32.8790409999925
            ],
            [
              -60.68632599999998,
              -32.88091899999249
            ],
            [
              -60.68656699999999,
              -32.882907999992504
            ],
            [
              -60.686784999999986,
              -32.88421399999249
            ],
            [
              -60.686677999999986,
              -32.8850279999925
            ],
            [
              -60.68644999999996,
              -32.88691999999252
            ],
            [
              -60.68636299999995,
              -32.88792399999249
            ],
            [
              -60.68588099999999,
              -32.889169999992504
            ],
            [
              -60.684865,
              -32.89194499999249
            ],
            [
              -60.68460299999996,
              -32.892216999992506
            ],
            [
              -60.68426799999998,
              -32.892856999992524
            ],
            [
              -60.683228999999976,
              -32.892845999992495
            ],
            [
              -60.682928000000004,
              -32.89303899999252
            ],
            [
              -60.682784,
              -32.89390099999248
            ],
            [
              -60.682379999999974,
              -32.89543299999247
            ],
            [
              -60.68175499999996,
              -32.89747199999249
            ],
            [
              -60.68080299999995,
              -32.89903899999248
            ],
            [
              -60.679479999999934,
              -32.901421999992515
            ],
            [
              -60.67670799999996,
              -32.9039769999925
            ],
            [
              -60.67627999999995,
              -32.90487199999251
            ],
            [
              -60.67595299999998,
              -32.90653099999248
            ],
            [
              -60.67510599999999,
              -32.9069509999925
            ],
            [
              -60.67387299999998,
              -32.9110489999925
            ],
            [
              -60.67253799999997,
              -32.911964999992485
            ]
          ]
        ]
      }
    },
    {
      "type": "Feature",
      "properties": {
        "id": 5,
        "Subzona": "1B",
        "Zona": 1,
        "name": "1B",
        "color": "#e65100",
        "fillColor": "#e65100",
        "fillOpacity": 0.3
      },
      "geometry": {
        "type": "Polygon",
        "coordinates": [
          [
            [
              -60.70495092983086,
              -32.87565598762871
            ],
            [
              -60.698384452073405,
              -32.89501953550205
            ],
            [
              -60.69421899999998,
              -32.90711999999249
            ],
            [
              -60.692484999999955,
              -32.907078999992535
            ],
            [
              -60.68902784082726,
              -32.90693746190759
            ],
            [
              -60.68717038793425,
              -32.912957357916234
            ],
            [
              -60.69872504057226,
              -32.91329020373154
            ],
            [
              -60.720371092990646,
              -32.894337656331146
            ],
            [
              -60.718755999999956,
              -32.892081999992506
            ],
            [
              -60.715617580212815,
              -32.88822857526135
            ],
            [
              -60.706707866720066,
              -32.8773126612178
            ],
            [
              -60.70495092983086,
              -32.87565598762871
            ]
          ]
        ]
      }
    },
    {
      "type": "Feature",
      "properties": {
        "id": 6,
        "Subzona": "1D",
        "Zona": 1,
        "name": "1D",
        "color": "#f9a825",
        "fillColor": "#f9a825",
        "fillOpacity": 0.3
      },
      "geometry": {
        "type": "Polygon",
        "coordinates": [
          [
            [
              -60.720371092990646,
              -32.894337656331146
            ],
            [
              -60.770641000000005,
              -32.89603299999251
            ],
            [
              -60.77102349861438,
              -32.88783045892352
            ],
            [
              -60.771142,
              -32.8852889999925
            ],
            [
              -60.78124899999996,
              -32.8856779999925
            ],
            [
              -60.782035999999984,
              -32.87428899999247
            ],
            [
              -60.70656842716903,
              -32.871178341588326
            ],
            [
              -60.70495092983086,
              -32.87565598762871
            ],
            [
              -60.706707866720066,
              -32.8773126612178
            ],
            [
              -60.715617580212815,
              -32.88822857526135
            ],
            [
              -60.718755999999956,
              -32.892081999992506
            ],
            [
              -60.720371092990646,
              -32.894337656331146
            ]
          ]
        ]
      }
    },
    {
      "type": "Feature",
      "properties": {
        "id": 7,
        "Subzona": "1J",
        "Zona": 1,
        "name": "1J",
        "color": "#4e342e",
        "fillColor": "#4e342e",
        "fillOpacity": 0.3
      },
      "geometry": {
        "type": "Polygon",
        "coordinates": [
          [
            [
              -60.720371092990646,
              -32.894337656331146
            ],
            [
              -60.69872504057226,
              -32.91329020373154
            ],
            [
              -60.696346141499745,
              -32.915315781280604
            ],
            [
              -60.695893017866894,
              -32.91575322386705
            ],
            [
              -60.69526997287169,
              -32.91647595036026
            ],
            [
              -60.69466958405813,
              -32.91730327475939
            ],
            [
              -60.694114507607885,
              -32.91832077807116
            ],
            [
              -60.69384653791678,
              -32.91911472491833
            ],
            [
              -60.69379291681408,
              -32.919278360997765
            ],
            [
              -60.69376181314826,
              -32.919376901277936
            ],
            [
              -60.69372384216998,
              -32.919498907199596
            ],
            [
              -60.69369600028308,
              -32.919579797981726
            ],
            [
              -60.69367761361626,
              -32.919647318560074
            ],
            [
              -60.693667884241314,
              -32.919689303935314
            ],
            [
              -60.69365853570094,
              -32.91974257864101
            ],
            [
              -60.69364704374163,
              -32.91979099275638
            ],
            [
              -60.69362864045182,
              -32.919880471060225
            ],
            [
              -60.69361038541398,
              -32.91999257573166
            ],
            [
              -60.69360030412167,
              -32.92005091411338
            ],
            [
              -60.69358574143977,
              -32.920123032040586
            ],
            [
              -60.693566108048834,
              -32.92021760837989
            ],
            [
              -60.69355780143639,
              -32.9202719792356
            ],
            [
              -60.69355020200635,
              -32.92031621837606
            ],
            [
              -60.69353758261572,
              -32.92037676907597
            ],
            [
              -60.69352791466066,
              -32.92045466053146
            ],
            [
              -60.69312787554188,
              -32.930940757949294
            ],
            [
              -60.693787999999955,
              -32.93087799999251
            ],
            [
              -60.69427699999999,
              -32.9308269999925
            ],
            [
              -60.69643499999998,
              -32.930602999992516
            ],
            [
              -60.69754399999996,
              -32.93049199999252
            ],
            [
              -60.69860799999997,
              -32.93038299999251
            ],
            [
              -60.701575933360026,
              -32.930064880092665
            ],
            [
              -60.70611399999998,
              -32.929604999992506
            ],
            [
              -60.707208999999985,
              -32.929506999992505
            ],
            [
              -60.71077999999997,
              -32.9291439999925
            ],
            [
              -60.71549299999998,
              -32.928663999992494
            ],
            [
              -60.720210999999956,
              -32.928175999992504
            ],
            [
              -60.723288999999994,
              -32.9278619999925
            ],
            [
              -60.72390472136617,
              -32.915003225480405
            ],
            [
              -60.72444867893718,
              -32.90738969459666
            ],
            [
              -60.724284854691305,
              -32.90405559367501
            ],
            [
              -60.72370857321216,
              -32.90094280723816
            ],
            [
              -60.72300797523927,
              -32.898825933217445
            ],
            [
              -60.722171440176524,
              -32.89686509575367
            ],
            [
              -60.720371092990646,
              -32.894337656331146
            ]
          ]
        ]
      }
    },
    {
      "type": "Feature",
      "properties": {
        "id": 8,
        "Subzona": "1F",
        "Zona": 1,
        "name": "1F",
        "color": "#4e342e",
        "fillColor": "#4e342e",
        "fillOpacity": 0.3
      },
      "geometry": {
        "type": "Polygon",
        "coordinates": [
          [
            [
              -60.72390472136617,
              -32.915003225480405
            ],
            [
              -60.723288999999994,
              -32.9278619999925
            ],
            [
              -60.7250201332799,
              -32.92765186635338
            ],
            [
              -60.7276116001602,
              -32.92739651974738
            ],
            [
              -60.729883866720066,
              -32.92714403939639
            ],
            [
              -60.74058240024035,
              -32.92605698590712
            ],
            [
              -60.74496180008009,
              -32.925619932775255
            ],
            [
              -60.74607428321982,
              -32.925512492840696
            ],
            [
              -60.74727866639959,
              -32.9253855192824
            ],
            [
              -60.75067020032046,
              -32.925038346127295
            ],
            [
              -60.761161885996934,
              -32.92398229497747
            ],
            [
              -60.76185499999994,
              -32.92379799999251
            ],
            [
              -60.76171569166482,
              -32.92375438088049
            ],
            [
              -60.761347076119954,
              -32.923614630159825
            ],
            [
              -60.760990241228455,
              -32.92337215689289
            ],
            [
              -60.760777242852086,
              -32.92313026376739
            ],
            [
              -60.76070137484124,
              -32.92304410371966
            ],
            [
              -60.760656286729905,
              -32.92290370671871
            ],
            [
              -60.760622078130496,
              -32.922796874402906
            ],
            [
              -60.760537117420505,
              -32.922678013920354
            ],
            [
              -60.76045429854948,
              -32.92257556549154
            ],
            [
              -60.76039290853292,
              -32.92250076954113
            ],
            [
              -60.76036455679897,
              -32.92246524103563
            ],
            [
              -60.76032188363409,
              -32.92241176586631
            ],
            [
              -60.760285114647644,
              -32.922375222743845
            ],
            [
              -60.760245293784386,
              -32.92233572603557
            ],
            [
              -60.76019148088426,
              -32.92228206542278
            ],
            [
              -60.76014075545746,
              -32.922231800331204
            ],
            [
              -60.76009197810666,
              -32.92218346563677
            ],
            [
              -60.7600215923072,
              -32.9221137185912
            ],
            [
              -60.75988575205195,
              -32.921979111091574
            ],
            [
              -60.75979162028659,
              -32.92187663804606
            ],
            [
              -60.75969712689899,
              -32.921773771333896
            ],
            [
              -60.759603711653824,
              -32.92167207830139
            ],
            [
              -60.75952325306224,
              -32.921584490047984
            ],
            [
              -60.759422160142876,
              -32.921485488006454
            ],
            [
              -60.75938731594635,
              -32.92145136448312
            ],
            [
              -60.75932682882955,
              -32.92140687211421
            ],
            [
              -60.75922401996206,
              -32.92133392656375
            ],
            [
              -60.759053137249744,
              -32.921256430292836
            ],
            [
              -60.758869030890175,
              -32.92113930356784
            ],
            [
              -60.758784095073764,
              -32.92108526820459
            ],
            [
              -60.75846690850115,
              -32.92086299471286
            ],
            [
              -60.75827999495674,
              -32.92065141832832
            ],
            [
              -60.75818087412613,
              -32.92050640500129
            ],
            [
              -60.75803927289779,
              -32.92018071844592
            ],
            [
              -60.75796847227987,
              -32.920007176944
            ],
            [
              -60.757906167760595,
              -32.91992397200074
            ],
            [
              -60.757787222790036,
              -32.919824125976625
            ],
            [
              -60.75769376601237,
              -32.91970288421171
            ],
            [
              -60.757234421164064,
              -32.91936064962007
            ],
            [
              -60.75705656085826,
              -32.91929636657486
            ],
            [
              -60.75673371028176,
              -32.91918938797795
            ],
            [
              -60.75650148444389,
              -32.91915610575448
            ],
            [
              -60.755355467272366,
              -32.9191681858499
            ],
            [
              -60.75485136723044,
              -32.91917769507469
            ],
            [
              -60.75448886832388,
              -32.91914441278348
            ],
            [
              -60.753537308694185,
              -32.918930454898295
            ],
            [
              -60.75247246815621,
              -32.91869272330806
            ],
            [
              -60.75199668834135,
              -32.918402689903246
            ],
            [
              -60.751768096048174,
              -32.91795026478665
            ],
            [
              -60.751549228753575,
              -32.91725205621096
            ],
            [
              -60.7511087123811,
              -32.915986714726614
            ],
            [
              -60.751010998186516,
              -32.91576649966789
            ],
            [
              -60.72390472136617,
              -32.915003225480405
            ]
          ]
        ]
      }
    },
    {
      "type": "Feature",
      "properties": {
        "id": 9,
        "Subzona": "1C",
        "Zona": 1,
        "name": "1C",
        "color": "#006064",
        "fillColor": "#006064",
        "fillOpacity": 0.3
      },
      "geometry": {
        "type": "Polygon",
        "coordinates": [
          [
            [
              -60.720371092990646,
              -32.894337656331146
            ],
            [
              -60.722171440176524,
              -32.89686509575367
            ],
            [
              -60.72300797523927,
              -32.898825933217445
            ],
            [
              -60.72370857321216,
              -32.90094280723816
            ],
            [
              -60.724284854691305,
              -32.90405559367501
            ],
            [
              -60.72444867893718,
              -32.90738969459666
            ],
            [
              -60.72390472136617,
              -32.915003225480405
            ],
            [
              -60.751010998186516,
              -32.91576649966789
            ],
            [
              -60.7511087123811,
              -32.915986714726614
            ],
            [
              -60.751549228753575,
              -32.91725205621096
            ],
            [
              -60.751768096048174,
              -32.91795026478665
            ],
            [
              -60.75199668834135,
              -32.918402689903246
            ],
            [
              -60.75247246815621,
              -32.91869272330806
            ],
            [
              -60.753537308694185,
              -32.918930454898295
            ],
            [
              -60.75448886832388,
              -32.91914441278348
            ],
            [
              -60.75485136723044,
              -32.91917769507469
            ],
            [
              -60.755355467272366,
              -32.9191681858499
            ],
            [
              -60.75650148444389,
              -32.91915610575448
            ],
            [
              -60.75673371028176,
              -32.91918938797795
            ],
            [
              -60.75705656085826,
              -32.91929636657486
            ],
            [
              -60.757234421164064,
              -32.91936064962007
            ],
            [
              -60.75769376601237,
              -32.91970288421171
            ],
            [
              -60.757787222790036,
              -32.919824125976625
            ],
            [
              -60.757906167760595,
              -32.91992397200074
            ],
            [
              -60.75796847227987,
              -32.920007176944
            ],
            [
              -60.75803927289779,
              -32.92018071844592
            ],
            [
              -60.75818087412613,
              -32.92050640500129
            ],
            [
              -60.75827999495674,
              -32.92065141832832
            ],
            [
              -60.75846690850115,
              -32.92086299471286
            ],
            [
              -60.758784095073764,
              -32.92108526820459
            ],
            [
              -60.758869030890175,
              -32.92113930356784
            ],
            [
              -60.759053137249744,
              -32.921256430292836
            ],
            [
              -60.75922401996206,
              -32.92133392656375
            ],
            [
              -60.75932682882955,
              -32.92140687211421
            ],
            [
              -60.75938731594635,
              -32.92145136448312
            ],
            [
              -60.759422160142876,
              -32.921485488006454
            ],
            [
              -60.75952325306224,
              -32.921584490047984
            ],
            [
              -60.759603711653824,
              -32.92167207830139
            ],
            [
              -60.75969712689899,
              -32.921773771333896
            ],
            [
              -60.75979162028659,
              -32.92187663804606
            ],
            [
              -60.75988575205195,
              -32.921979111091574
            ],
            [
              -60.7600215923072,
              -32.9221137185912
            ],
            [
              -60.76009197810666,
              -32.92218346563677
            ],
            [
              -60.76014075545746,
              -32.922231800331204
            ],
            [
              -60.76019148088426,
              -32.92228206542278
            ],
            [
              -60.760245293784386,
              -32.92233572603557
            ],
            [
              -60.760285114647644,
              -32.922375222743845
            ],
            [
              -60.76032188363409,
              -32.92241176586631
            ],
            [
              -60.76036455679897,
              -32.92246524103563
            ],
            [
              -60.76039290853292,
              -32.92250076954113
            ],
            [
              -60.76045429854948,
              -32.92257556549154
            ],
            [
              -60.760537117420505,
              -32.922678013920354
            ],
            [
              -60.760622078130496,
              -32.922796874402906
            ],
            [
              -60.760656286729905,
              -32.92290370671871
            ],
            [
              -60.76070137484124,
              -32.92304410371966
            ],
            [
              -60.760777242852086,
              -32.92313026376739
            ],
            [
              -60.760990241228455,
              -32.92337215689289
            ],
            [
              -60.761347076119954,
              -32.923614630159825
            ],
            [
              -60.76171569166482,
              -32.92375438088049
            ],
            [
              -60.76185499999994,
              -32.92379799999251
            ],
            [
              -60.764880999999995,
              -32.923518999992496
            ],
            [
              -60.768475,
              -32.92313699999251
            ],
            [
              -60.77477999999999,
              -32.92248599999251
            ],
            [
              -60.77696500000002,
              -32.92193299999252
            ],
            [
              -60.78247599999995,
              -32.9154879999925
            ],
            [
              -60.78823600000003,
              -32.90874599999248
            ],
            [
              -60.79710199999999,
              -32.89686999999251
            ],
            [
              -60.770641000000005,
              -32.89603299999251
            ],
            [
              -60.720371092990646,
              -32.894337656331146
            ]
          ]
        ]
      }
    },
    {
      "type": "Feature",
      "properties": {
        "id": 10,
        "Subzona": "1E",
        "Zona": 1,
        "name": "1E",
        "color": "#817717",
        "fillColor": "#817717",
        "fillOpacity": 0.3
      },
      "geometry": {
        "type": "Polygon",
        "coordinates": [
          [
            [
              -60.723288999999994,
              -32.9278619999925
            ],
            [
              -60.72258389804179,
              -32.94014386311996
            ],
            [
              -60.73005419313125,
              -32.94047158757705
            ],
            [
              -60.7300899389883,
              -32.939795437052084
            ],
            [
              -60.738817602514274,
              -32.94012773239023
            ],
            [
              -60.73881956884183,
              -32.94046386930843
            ],
            [
              -60.76110599776847,
              -32.941048890114956
            ],
            [
              -60.77408899999997,
              -32.94120599999249
            ],
            [
              -60.774438999999994,
              -32.939672999992496
            ],
            [
              -60.773727000000015,
              -32.93913099999251
            ],
            [
              -60.770905999999954,
              -32.9380229999925
            ],
            [
              -60.77047699999998,
              -32.9373259999925
            ],
            [
              -60.769104000000006,
              -32.9372979999925
            ],
            [
              -60.76910599999995,
              -32.93668599999249
            ],
            [
              -60.76973199999998,
              -32.936724999992514
            ],
            [
              -60.76973099999999,
              -32.93656899999256
            ],
            [
              -60.76890800000002,
              -32.936009999992514
            ],
            [
              -60.76881199999997,
              -32.93392799999252
            ],
            [
              -60.768278999999986,
              -32.9331269999925
            ],
            [
              -60.76671199999998,
              -32.9319029999925
            ],
            [
              -60.76623699999998,
              -32.931125999992524
            ],
            [
              -60.766077999999986,
              -32.93084099999251
            ],
            [
              -60.76610799999997,
              -32.92933699999249
            ],
            [
              -60.765913999999945,
              -32.927538999992514
            ],
            [
              -60.76576199999998,
              -32.927123999992524
            ],
            [
              -60.765326,
              -32.92689899999249
            ],
            [
              -60.764814,
              -32.9268179999925
            ],
            [
              -60.763751,
              -32.92622599999252
            ],
            [
              -60.76345799999999,
              -32.926017999992496
            ],
            [
              -60.763062000000005,
              -32.925450999992506
            ],
            [
              -60.76271800000001,
              -32.9251469999925
            ],
            [
              -60.76216,
              -32.9245699999925
            ],
            [
              -60.76185499999994,
              -32.92379799999251
            ],
            [
              -60.761161885996934,
              -32.92398229497747
            ],
            [
              -60.75067020032046,
              -32.925038346127295
            ],
            [
              -60.74727866639959,
              -32.9253855192824
            ],
            [
              -60.74607428321982,
              -32.925512492840696
            ],
            [
              -60.74496180008009,
              -32.925619932775255
            ],
            [
              -60.74058240024035,
              -32.92605698590712
            ],
            [
              -60.729883866720066,
              -32.92714403939639
            ],
            [
              -60.7276116001602,
              -32.92739651974738
            ],
            [
              -60.7250201332799,
              -32.92765186635338
            ],
            [
              -60.723288999999994,
              -32.9278619999925
            ]
          ]
        ]
      }
    },
    {
      "type": "Feature",
      "properties": {
        "id": 11,
        "Subzona": "1K",
        "Zona": 1,
        "name": "1K",
        "color": "#3949ab",
        "fillColor": "#3949ab",
        "fillOpacity": 0.3
      },
      "geometry": {
        "type": "Polygon",
        "coordinates": [
          [
            [
              -60.72258389804179,
              -32.94014386311996
            ],
            [
              -60.723288999999994,
              -32.9278619999925
            ],
            [
              -60.720210999999956,
              -32.928175999992504
            ],
            [
              -60.71549299999998,
              -32.928663999992494
            ],
            [
              -60.71077999999997,
              -32.9291439999925
            ],
            [
              -60.707208999999985,
              -32.929506999992505
            ],
            [
              -60.70611399999998,
              -32.929604999992506
            ],
            [
              -60.701575933360026,
              -32.930064880092665
            ],
            [
              -60.69860799999997,
              -32.93038299999251
            ],
            [
              -60.69754399999996,
              -32.93049199999252
            ],
            [
              -60.69643499999998,
              -32.930602999992516
            ],
            [
              -60.69427699999999,
              -32.9308269999925
            ],
            [
              -60.693787999999955,
              -32.93087799999251
            ],
            [
              -60.69312787554188,
              -32.930940757949294
            ],
            [
              -60.692939615263285,
              -32.93678294929702
            ],
            [
              -60.692901856683406,
              -32.93788391849799
            ],
            [
              -60.69277285721636,
              -32.94185291850629
            ],
            [
              -60.70318657479487,
              -32.93967457475271
            ],
            [
              -60.72258389804179,
              -32.94014386311996
            ]
          ]
        ]
      }
    },
    {
      "type": "Feature",
      "properties": {
        "id": 12,
        "Subzona": "1L",
        "Zona": 1,
        "name": "1L",
        "color": "#afb42b",
        "fillColor": "#afb42b",
        "fillOpacity": 0.3
      },
      "geometry": {
        "type": "Polygon",
        "coordinates": [
          [
            [
              -60.69277285721636,
              -32.94185291850629
            ],
            [
              -60.69276321881398,
              -32.942151127152535
            ],
            [
              -60.69256091243502,
              -32.94789905155881
            ],
            [
              -60.70206346995859,
              -32.94815600864175
            ],
            [
              -60.702103714279986,
              -32.94815685299443
            ],
            [
              -60.712085761840044,
              -32.948365881951645
            ],
            [
              -60.71803024910059,
              -32.94852569524601
            ],
            [
              -60.719876806032104,
              -32.94840816733299
            ],
            [
              -60.720542004278286,
              -32.94848560028101
            ],
            [
              -60.72141947625328,
              -32.94849362991828
            ],
            [
              -60.7220550752812,
              -32.94849944235558
            ],
            [
              -60.72434137254686,
              -32.94876695121826
            ],
            [
              -60.72643863940678,
              -32.94896573147897
            ],
            [
              -60.7282570881303,
              -32.949029743255835
            ],
            [
              -60.729327232888345,
              -32.94906004835412
            ],
            [
              -60.73051879704465,
              -32.94906359316541
            ],
            [
              -60.73129267349302,
              -32.949065895388
            ],
            [
              -60.7323771576225,
              -32.94900751471983
            ],
            [
              -60.73399693614314,
              -32.94902357853359
            ],
            [
              -60.735252238661474,
              -32.94907799150937
            ],
            [
              -60.73565344082928,
              -32.94910805335504
            ],
            [
              -60.73582368456974,
              -32.949120809223594
            ],
            [
              -60.738100955878465,
              -32.94929141584687
            ],
            [
              -60.740473875343596,
              -32.9493124440613
            ],
            [
              -60.741652158057875,
              -32.949163347866865
            ],
            [
              -60.74315297572995,
              -32.948990204049984
            ],
            [
              -60.746279719190234,
              -32.94845865409596
            ],
            [
              -60.74911676745835,
              -32.94800036397367
            ],
            [
              -60.75754499999996,
              -32.94865099999251
            ],
            [
              -60.76174799999999,
              -32.9487999999925
            ],
            [
              -60.783197999999985,
              -32.9493149999925
            ],
            [
              -60.78358000000002,
              -32.94905599999253
            ],
            [
              -60.78341099999999,
              -32.94830699999252
            ],
            [
              -60.78223199999998,
              -32.9475839999925
            ],
            [
              -60.78184200000002,
              -32.946852999992494
            ],
            [
              -60.781335,
              -32.946770999992516
            ],
            [
              -60.778247,
              -32.945169999992494
            ],
            [
              -60.777662,
              -32.94514199999251
            ],
            [
              -60.77408899999997,
              -32.94120599999249
            ],
            [
              -60.76110599776847,
              -32.941048890114956
            ],
            [
              -60.73881956884183,
              -32.94046386930843
            ],
            [
              -60.738817602514274,
              -32.94012773239023
            ],
            [
              -60.7300899389883,
              -32.939795437052084
            ],
            [
              -60.73005419313125,
              -32.94047158757705
            ],
            [
              -60.72258389804179,
              -32.94014386311996
            ],
            [
              -60.70318657479487,
              -32.93967457475271
            ],
            [
              -60.69277285721636,
              -32.94185291850629
            ]
          ]
        ]
      }
    },
    {
      "type": "Feature",
      "properties": {
        "id": 1,
        "Subzona": "2J",
        "Zona": 2,
        "name": "2J",
        "color": "#880e4f",
        "fillColor": "#880e4f",
        "fillOpacity": 0.3
      },
      "geometry": {
        "type": "Polygon",
        "coordinates": [
          [
            [
              -60.63967343275889,
              -32.93576087228453
            ],
            [
              -60.63891799999994,
              -32.9362239999925
            ],
            [
              -60.637425999999955,
              -32.937153999992475
            ],
            [
              -60.63344199999999,
              -32.94067899999252
            ],
            [
              -60.629046999999964,
              -32.94505099999251
            ],
            [
              -60.62634299999996,
              -32.94847799999252
            ],
            [
              -60.625605223996246,
              -32.94962011731686
            ],
            [
              -60.62352099999995,
              -32.95285399999252
            ],
            [
              -60.62158999999995,
              -32.95651899999251
            ],
            [
              -60.61985999999995,
              -32.960589999992514
            ],
            [
              -60.61862999999998,
              -32.964941999992526
            ],
            [
              -60.617817999999964,
              -32.969310999992494
            ],
            [
              -60.61763299999995,
              -32.97161399999251
            ],
            [
              -60.61783099999995,
              -32.971881999992526
            ],
            [
              -60.61760999999996,
              -32.97208199999249
            ],
            [
              -60.617595621220666,
              -32.97245384959781
            ],
            [
              -60.623467297042424,
              -32.97144440031877
            ],
            [
              -60.623586649791456,
              -32.971862171426125
            ],
            [
              -60.63115409357321,
              -32.9704582748946
            ],
            [
              -60.633823054110366,
              -32.96996301515984
            ],
            [
              -60.638296946343395,
              -32.96913221601023
            ],
            [
              -60.638672184377576,
              -32.96906252655614
            ],
            [
              -60.642539899358766,
              -32.96925364567008
            ],
            [
              -60.6456045352555,
              -32.96889325717753
            ],
            [
              -60.64784675195076,
              -32.96850108771497
            ],
            [
              -60.63967343275889,
              -32.93576087228453
            ]
          ]
        ]
      }
    },
    {
      "type": "Feature",
      "properties": {
        "id": 2,
        "Subzona": "2F",
        "Zona": 2,
        "name": "2F",
        "color": "#9c27b0",
        "fillColor": "#9c27b0",
        "fillOpacity": 0.3
      },
      "geometry": {
        "type": "Polygon",
        "coordinates": [
          [
            [
              -60.63967343275889,
              -32.93576087228453
            ],
            [
              -60.64784675195076,
              -32.96850108771497
            ],
            [
              -60.6482231079592,
              -32.96843525790029
            ],
            [
              -60.652125727524925,
              -32.96775256390181
            ],
            [
              -60.65375455642921,
              -32.96746792475816
            ],
            [
              -60.6588279812149,
              -32.96657981475011
            ],
            [
              -60.65933751046856,
              -32.96649064219473
            ],
            [
              -60.666779443412096,
              -32.96518797570629
            ],
            [
              -60.66725943909407,
              -32.96510393883415
            ],
            [
              -60.67108470323048,
              -32.964434145989024
            ],
            [
              -60.6714465207145,
              -32.96437078617473
            ],
            [
              -60.663107725390745,
              -32.93123703587854
            ],
            [
              -60.662484397356984,
              -32.93100097779683
            ],
            [
              -60.66208381813983,
              -32.92982972545575
            ],
            [
              -60.66274737504319,
              -32.929798945485
            ],
            [
              -60.66314885454829,
              -32.92949907768096
            ],
            [
              -60.66331166309735,
              -32.929139769462196
            ],
            [
              -60.66321146136686,
              -32.92874046095842
            ],
            [
              -60.66293980756659,
              -32.92843269630048
            ],
            [
              -60.66256879051705,
              -32.92828683529864
            ],
            [
              -60.66159507752228,
              -32.92493909957756
            ],
            [
              -60.66146808279585,
              -32.92450245741921
            ],
            [
              -60.66070891747449,
              -32.923858885514015
            ],
            [
              -60.65310099999998,
              -32.928099999992526
            ],
            [
              -60.65142499999995,
              -32.928585999992514
            ],
            [
              -60.64868499999997,
              -32.930489999992545
            ],
            [
              -60.64859899999996,
              -32.930472999992524
            ],
            [
              -60.64641299999997,
              -32.931703999992514
            ],
            [
              -60.63967343275889,
              -32.93576087228453
            ]
          ]
        ]
      }
    },
    {
      "type": "Feature",
      "properties": {
        "id": 13,
        "Subzona": "2E",
        "Zona": 2,
        "name": "2E",
        "color": "#ffea00",
        "fillColor": "#ffea00",
        "fillOpacity": 0.3
      },
      "geometry": {
        "type": "Polygon",
        "coordinates": [
          [
            [
              -60.663107725390745,
              -32.93123703587854
            ],
            [
              -60.6714465207145,
              -32.96437078617473
            ],
            [
              -60.67688670124823,
              -32.96339956830621
            ],
            [
              -60.682055417680324,
              -32.96247449993347
            ],
            [
              -60.68495299999993,
              -32.961948999992536
            ],
            [
              -60.68553599999995,
              -32.96184299999248
            ],
            [
              -60.68640599999991,
              -32.9616869999925
            ],
            [
              -60.68680399999999,
              -32.96160399999255
            ],
            [
              -60.68715899999998,
              -32.96152299999252
            ],
            [
              -60.687352999999966,
              -32.96146299999254
            ],
            [
              -60.68757299999991,
              -32.96138599999252
            ],
            [
              -60.687780999999994,
              -32.961316999992505
            ],
            [
              -60.687966999999944,
              -32.961245999992535
            ],
            [
              -60.68820999999996,
              -32.961147999992505
            ],
            [
              -60.688518999999935,
              -32.96100599999253
            ],
            [
              -60.68881399999991,
              -32.9608559999925
            ],
            [
              -60.68906599999993,
              -32.960714999992504
            ],
            [
              -60.68911599917879,
              -32.96069999957142
            ],
            [
              -60.68946999999999,
              -32.96046499999251
            ],
            [
              -60.689819999999976,
              -32.96021599999251
            ],
            [
              -60.68997000000004,
              -32.96010099999249
            ],
            [
              -60.69006799999998,
              -32.960024999992505
            ],
            [
              -60.69031999999997,
              -32.95980499999252
            ],
            [
              -60.69057399999992,
              -32.95955999999253
            ],
            [
              -60.69081699999999,
              -32.959302999992495
            ],
            [
              -60.691041159437376,
              -32.95903860104607
            ],
            [
              -60.69120599999999,
              -32.958808999992506
            ],
            [
              -60.6913146330326,
              -32.95865366982924
            ],
            [
              -60.69222000000001,
              -32.95872799999251
            ],
            [
              -60.692290999999976,
              -32.95602699999252
            ],
            [
              -60.692300999999965,
              -32.95594499999251
            ],
            [
              -60.692301999999955,
              -32.955902999992524
            ],
            [
              -60.692330999999974,
              -32.95502599999251
            ],
            [
              -60.69235299999997,
              -32.95433799999251
            ],
            [
              -60.69236299999994,
              -32.95394699999253
            ],
            [
              -60.69255451245792,
              -32.94821651208489
            ],
            [
              -60.692560912435006,
              -32.94789905155888
            ],
            [
              -60.69276321881393,
              -32.94215112715255
            ],
            [
              -60.69277285721636,
              -32.94185291850629
            ],
            [
              -60.69290185668333,
              -32.93788391849797
            ],
            [
              -60.69293961526328,
              -32.93678294929703
            ],
            [
              -60.693127875541876,
              -32.9309407579493
            ],
            [
              -60.67783664300439,
              -32.93255158546488
            ],
            [
              -60.677740680266375,
              -32.93256168840555
            ],
            [
              -60.671690310957544,
              -32.933197009282345
            ],
            [
              -60.663107725390745,
              -32.93123703587854
            ]
          ]
        ]
      }
    },
    {
      "type": "Feature",
      "properties": {
        "id": 14,
        "Subzona": "2A",
        "Zona": 2,
        "name": "2A",
        "color": "#c2185b",
        "fillColor": "#c2185b",
        "fillOpacity": 0.3
      },
      "geometry": {
        "type": "Polygon",
        "coordinates": [
          [
            [
              -60.692560912435006,
              -32.94789905155888
            ],
            [
              -60.69255451245792,
              -32.94821651208489
            ],
            [
              -60.69236299999994,
              -32.95394699999253
            ],
            [
              -60.69235299999997,
              -32.95433799999251
            ],
            [
              -60.692330999999974,
              -32.95502599999251
            ],
            [
              -60.692301999999955,
              -32.955902999992524
            ],
            [
              -60.692300999999965,
              -32.95594499999251
            ],
            [
              -60.692290999999976,
              -32.95602699999252
            ],
            [
              -60.69222000000001,
              -32.95872799999251
            ],
            [
              -60.69221757623776,
              -32.958816871508084
            ],
            [
              -60.69415848342494,
              -32.95895276429311
            ],
            [
              -60.700168852154384,
              -32.95914408652317
            ],
            [
              -60.70124767817723,
              -32.95923661423853
            ],
            [
              -60.70176514114378,
              -32.95926640438826
            ],
            [
              -60.70705076342213,
              -32.95941411004713
            ],
            [
              -60.71200202957588,
              -32.95955267979144
            ],
            [
              -60.71207348602928,
              -32.95955417371187
            ],
            [
              -60.721525978294565,
              -32.959818617035594
            ],
            [
              -60.72205507528118,
              -32.9484994423556
            ],
            [
              -60.72141947625328,
              -32.9484936299183
            ],
            [
              -60.72054200427826,
              -32.948485600281025
            ],
            [
              -60.719876806032104,
              -32.948408167333
            ],
            [
              -60.71803024910057,
              -32.94852569524601
            ],
            [
              -60.712085761840044,
              -32.94836588195165
            ],
            [
              -60.70210371427992,
              -32.94815685299444
            ],
            [
              -60.70206346995856,
              -32.94815600864177
            ],
            [
              -60.692560912435006,
              -32.94789905155888
            ]
          ]
        ]
      }
    },
    {
      "type": "Feature",
      "properties": {
        "id": 15,
        "Subzona": "2B",
        "Zona": 2,
        "name": "2B",
        "color": "#f57c00",
        "fillColor": "#f57c00",
        "fillOpacity": 0.3
      },
      "geometry": {
        "type": "Polygon",
        "coordinates": [
          [
            [
              -60.721525978294565,
              -32.959818617035594
            ],
            [
              -60.71207348602928,
              -32.95955417371187
            ],
            [
              -60.71200202957588,
              -32.95955267979144
            ],
            [
              -60.70705076342213,
              -32.95941411004713
            ],
            [
              -60.70176514114378,
              -32.95926640438826
            ],
            [
              -60.70124767817723,
              -32.95923661423853
            ],
            [
              -60.700168852154384,
              -32.95914408652317
            ],
            [
              -60.69415848342494,
              -32.95895276429311
            ],
            [
              -60.69221757623776,
              -32.958816871508084
            ],
            [
              -60.692207999999944,
              -32.959167999992516
            ],
            [
              -60.69219099999998,
              -32.95940499999252
            ],
            [
              -60.692154999999936,
              -32.95965399999251
            ],
            [
              -60.69213499999996,
              -32.95979799999252
            ],
            [
              -60.69207499999995,
              -32.960174999992496
            ],
            [
              -60.69194670740867,
              -32.963515892937636
            ],
            [
              -60.69192899999993,
              -32.96397699999251
            ],
            [
              -60.69196899973356,
              -32.96716799996474
            ],
            [
              -60.69187999999992,
              -32.96841299999251
            ],
            [
              -60.690902039651014,
              -32.97088908516751
            ],
            [
              -60.690848822571496,
              -32.97102382069539
            ],
            [
              -60.71617056701254,
              -32.97164969623742
            ],
            [
              -60.71713068148026,
              -32.9703946343356
            ],
            [
              -60.718861293488054,
              -32.96705912497202
            ],
            [
              -60.719843532735716,
              -32.96501851597353
            ],
            [
              -60.72077899868587,
              -32.96293861599092
            ],
            [
              -60.72124673166095,
              -32.96125111398958
            ],
            [
              -60.721525978294565,
              -32.959818617035594
            ]
          ]
        ]
      }
    },
    {
      "type": "Feature",
      "properties": {
        "id": 16,
        "Subzona": "2D",
        "Zona": 2,
        "name": "2D",
        "color": "#795548",
        "fillColor": "#795548",
        "fillOpacity": 0.3
      },
      "geometry": {
        "type": "Polygon",
        "coordinates": [
          [
            [
              -60.71617056701254,
              -32.97164969623742
            ],
            [
              -60.690848822571496,
              -32.97102382069539
            ],
            [
              -60.68946145132123,
              -32.974376081981276
            ],
            [
              -60.68915971257034,
              -32.97536925233367
            ],
            [
              -60.689094042414006,
              -32.97574501085533
            ],
            [
              -60.68903617112429,
              -32.97613869975497
            ],
            [
              -60.688996333453694,
              -32.9764097073482
            ],
            [
              -60.68904653654345,
              -32.97845964200142
            ],
            [
              -60.689076356696475,
              -32.98229719914464
            ],
            [
              -60.68907874408541,
              -32.98260440078791
            ],
            [
              -60.68909546767276,
              -32.98657388698249
            ],
            [
              -60.68914367591213,
              -32.992171738058296
            ],
            [
              -60.68914540716524,
              -32.99236195139185
            ],
            [
              -60.68921564010658,
              -33.00007709641373
            ],
            [
              -60.68941029474825,
              -33.00050329451697
            ],
            [
              -60.6909657672756,
              -32.99944816688617
            ],
            [
              -60.69709306924911,
              -32.99566264867073
            ],
            [
              -60.69936157417827,
              -32.9938777106843
            ],
            [
              -60.70132381579839,
              -32.99230295247067
            ],
            [
              -60.70261231835505,
              -32.991268890220844
            ],
            [
              -60.706120315668144,
              -32.98765956784681
            ],
            [
              -60.71135967033912,
              -32.97988668776073
            ],
            [
              -60.71617056701254,
              -32.97164969623742
            ]
          ]
        ]
      }
    },
    {
      "type": "Feature",
      "properties": {
        "id": 17,
        "Subzona": "2C",
        "Zona": 2,
        "name": "2C",
        "color": "#0097a7",
        "fillColor": "#0097a7",
        "fillOpacity": 0.3
      },
      "geometry": {
        "type": "Polygon",
        "coordinates": [
          [
            [
              -60.76004700000002,
              -32.95028199999253
            ],
            [
              -60.757545,
              -32.94865099999252
            ],
            [
              -60.74911676745842,
              -32.948000363973684
            ],
            [
              -60.74627971919025,
              -32.94845865409597
            ],
            [
              -60.74315297573,
              -32.94899020405002
            ],
            [
              -60.7416521580579,
              -32.94916334786689
            ],
            [
              -60.74047387534357,
              -32.94931244406131
            ],
            [
              -60.738100955878465,
              -32.94929141584689
            ],
            [
              -60.73582368456972,
              -32.949120809223594
            ],
            [
              -60.73565344082925,
              -32.94910805335504
            ],
            [
              -60.735252238661474,
              -32.94907799150937
            ],
            [
              -60.733996936143114,
              -32.94902357853359
            ],
            [
              -60.73237715762254,
              -32.949007514719845
            ],
            [
              -60.73129267349302,
              -32.94906589538802
            ],
            [
              -60.73051879704464,
              -32.94906359316541
            ],
            [
              -60.72932723288833,
              -32.949060048354134
            ],
            [
              -60.728257088130285,
              -32.94902974325584
            ],
            [
              -60.72643863940675,
              -32.948965731478985
            ],
            [
              -60.724341372546846,
              -32.948766951218275
            ],
            [
              -60.72205507528118,
              -32.9484994423556
            ],
            [
              -60.721525978294565,
              -32.959818617035594
            ],
            [
              -60.72124673166095,
              -32.96125111398958
            ],
            [
              -60.72077899868587,
              -32.96293861599092
            ],
            [
              -60.719843532735716,
              -32.96501851597353
            ],
            [
              -60.718861293488054,
              -32.96705912497202
            ],
            [
              -60.71713068148026,
              -32.9703946343356
            ],
            [
              -60.71617056701254,
              -32.97164969623742
            ],
            [
              -60.71135967033912,
              -32.97988668776073
            ],
            [
              -60.706120315668144,
              -32.98765956784681
            ],
            [
              -60.70261231835505,
              -32.991268890220844
            ],
            [
              -60.70132381579839,
              -32.99230295247067
            ],
            [
              -60.69936157417827,
              -32.9938777106843
            ],
            [
              -60.69709306924911,
              -32.99566264867073
            ],
            [
              -60.6909657672756,
              -32.99944816688617
            ],
            [
              -60.68941029474825,
              -33.00050329451697
            ],
            [
              -60.68942905647209,
              -33.001170887375906
            ],
            [
              -60.68967890698859,
              -33.01005995924245
            ],
            [
              -60.68967989434152,
              -33.010095085296065
            ],
            [
              -60.68973768439965,
              -33.0147967724806
            ],
            [
              -60.689812455917156,
              -33.0212775367181
            ],
            [
              -60.689812550140005,
              -33.02128640653716
            ],
            [
              -60.68985380775066,
              -33.02486093832966
            ],
            [
              -60.689868762608164,
              -33.026157976114284
            ],
            [
              -60.68986994472878,
              -33.02621838890403
            ],
            [
              -60.68990521365542,
              -33.02802094206361
            ],
            [
              -60.6899055224565,
              -33.028036724033704
            ],
            [
              -60.68990719249286,
              -33.02812207477846
            ],
            [
              -60.69003867814086,
              -33.034841158549305
            ],
            [
              -60.69016299999996,
              -33.034843999992525
            ],
            [
              -60.69051499999997,
              -33.03522199999255
            ],
            [
              -60.69090399999997,
              -33.0356959999925
            ],
            [
              -60.69098599999998,
              -33.03640799999253
            ],
            [
              -60.69173999999995,
              -33.03758699999251
            ],
            [
              -60.69204199999997,
              -33.037844999992515
            ],
            [
              -60.69251199999995,
              -33.03803599999253
            ],
            [
              -60.69416195885755,
              -33.03795499999252
            ],
            [
              -60.694570999999975,
              -33.037771999992515
            ],
            [
              -60.69553999999997,
              -33.03795499999253
            ],
            [
              -60.69605499999997,
              -33.0381029999925
            ],
            [
              -60.69690699999996,
              -33.03868999999254
            ],
            [
              -60.69763699999994,
              -33.03896699999253
            ],
            [
              -60.698149999999956,
              -33.03891399999252
            ],
            [
              -60.69874100000001,
              -33.03896799999254
            ],
            [
              -60.70185599999995,
              -33.03471299999253
            ],
            [
              -60.70426841712941,
              -33.03105312629987
            ],
            [
              -60.707231999999976,
              -33.02674999999251
            ],
            [
              -60.70741899999999,
              -33.026590999992536
            ],
            [
              -60.70909699999996,
              -33.0247949999925
            ],
            [
              -60.71026999999997,
              -33.02482399999252
            ],
            [
              -60.71281299999994,
              -33.02197899999254
            ],
            [
              -60.71561699999999,
              -33.01872699999254
            ],
            [
              -60.71702900000001,
              -33.01568499999252
            ],
            [
              -60.717174,
              -33.01564799999253
            ],
            [
              -60.719316999999975,
              -33.01105499999252
            ],
            [
              -60.72092,
              -33.00752899999252
            ],
            [
              -60.726737999999976,
              -33.00766099999256
            ],
            [
              -60.729887,
              -32.999514999992535
            ],
            [
              -60.733122,
              -32.99065899999252
            ],
            [
              -60.73580199999998,
              -32.98378999999255
            ],
            [
              -60.73620399999995,
              -32.979723999992515
            ],
            [
              -60.734466,
              -32.97398799999251
            ],
            [
              -60.73268999999999,
              -32.96437599999251
            ],
            [
              -60.76084599999999,
              -32.96525399999252
            ],
            [
              -60.76150699999998,
              -32.953397999992475
            ],
            [
              -60.760504,
              -32.950946999992475
            ],
            [
              -60.76004700000002,
              -32.95028199999253
            ]
          ]
        ]
      }
    },
    {
      "type": "Feature",
      "properties": {
        "id": 18,
        "Subzona": "3A",
        "Zona": 3,
        "name": "3A",
        "color": "#01579b",
        "fillColor": "#01579b",
        "fillOpacity": 0.3
      },
      "geometry": {
        "type": "Polygon",
        "coordinates": [
          [
            [
              -60.67126939978385,
              -32.981969648668205
            ],
            [
              -60.689076356696475,
              -32.98229719914464
            ],
            [
              -60.68904653654345,
              -32.97845964200142
            ],
            [
              -60.688996333453694,
              -32.9764097073482
            ],
            [
              -60.68903617112429,
              -32.97613869975497
            ],
            [
              -60.689094042414006,
              -32.97574501085533
            ],
            [
              -60.68915971257034,
              -32.97536925233367
            ],
            [
              -60.68946145132123,
              -32.974376081981276
            ],
            [
              -60.690848822571496,
              -32.97102382069539
            ],
            [
              -60.690902039651014,
              -32.97088908516751
            ],
            [
              -60.69187999999992,
              -32.96841299999251
            ],
            [
              -60.69196899973356,
              -32.96716799996474
            ],
            [
              -60.69192899999993,
              -32.96397699999251
            ],
            [
              -60.69194670740867,
              -32.963515892937636
            ],
            [
              -60.69207499999995,
              -32.960174999992496
            ],
            [
              -60.69213499999996,
              -32.95979799999252
            ],
            [
              -60.692154999999936,
              -32.95965399999251
            ],
            [
              -60.69219099999998,
              -32.95940499999252
            ],
            [
              -60.692207999999944,
              -32.959167999992516
            ],
            [
              -60.69221757623776,
              -32.958816871508084
            ],
            [
              -60.69222000000001,
              -32.95872799999251
            ],
            [
              -60.6913146330326,
              -32.95865366982924
            ],
            [
              -60.69120599999999,
              -32.958808999992506
            ],
            [
              -60.691041159437376,
              -32.95903860104607
            ],
            [
              -60.69081699999999,
              -32.959302999992495
            ],
            [
              -60.69057399999992,
              -32.95955999999253
            ],
            [
              -60.69031999999997,
              -32.95980499999252
            ],
            [
              -60.69006799999998,
              -32.960024999992505
            ],
            [
              -60.68997000000004,
              -32.96010099999249
            ],
            [
              -60.689819999999976,
              -32.96021599999251
            ],
            [
              -60.68946999999999,
              -32.96046499999251
            ],
            [
              -60.68911599917879,
              -32.96069999957142
            ],
            [
              -60.68906599999993,
              -32.960714999992504
            ],
            [
              -60.68881399999991,
              -32.9608559999925
            ],
            [
              -60.688518999999935,
              -32.96100599999253
            ],
            [
              -60.68820999999996,
              -32.961147999992505
            ],
            [
              -60.687966999999944,
              -32.961245999992535
            ],
            [
              -60.687780999999994,
              -32.961316999992505
            ],
            [
              -60.68757299999991,
              -32.96138599999252
            ],
            [
              -60.687352999999966,
              -32.96146299999254
            ],
            [
              -60.68715899999998,
              -32.96152299999252
            ],
            [
              -60.68680399999999,
              -32.96160399999255
            ],
            [
              -60.68640599999991,
              -32.9616869999925
            ],
            [
              -60.68553599999995,
              -32.96184299999248
            ],
            [
              -60.68495299999993,
              -32.961948999992536
            ],
            [
              -60.682055417680324,
              -32.96247449993347
            ],
            [
              -60.67688670124823,
              -32.96339956830621
            ],
            [
              -60.6714465207145,
              -32.96437078617473
            ],
            [
              -60.67108470323048,
              -32.964434145989024
            ],
            [
              -60.66725943909407,
              -32.96510393883415
            ],
            [
              -60.67126939978385,
              -32.981969648668205
            ]
          ]
        ]
      }
    },
    {
      "type": "Feature",
      "properties": {
        "id": 19,
        "Subzona": "3B",
        "Zona": 3,
        "name": "3B",
        "color": "#097138",
        "fillColor": "#097138",
        "fillOpacity": 0.3
      },
      "geometry": {
        "type": "Polygon",
        "coordinates": [
          [
            [
              -60.67371261711244,
              -32.9917319161911
            ],
            [
              -60.67126939978385,
              -32.981969648668205
            ],
            [
              -60.66725943909407,
              -32.96510393883415
            ],
            [
              -60.666779443412096,
              -32.96518797570629
            ],
            [
              -60.65933751046856,
              -32.96649064219473
            ],
            [
              -60.6588279812149,
              -32.96657981475011
            ],
            [
              -60.65375455642921,
              -32.96746792475816
            ],
            [
              -60.652125727524925,
              -32.96775256390181
            ],
            [
              -60.6482231079592,
              -32.96843525790029
            ],
            [
              -60.64784675195076,
              -32.96850108771497
            ],
            [
              -60.6456045352555,
              -32.96889325717753
            ],
            [
              -60.642539899358766,
              -32.96925364567008
            ],
            [
              -60.64460437203362,
              -32.977474813535196
            ],
            [
              -60.64432563634655,
              -32.9778588574015
            ],
            [
              -60.64424893376062,
              -32.97810341743223
            ],
            [
              -60.64695884227836,
              -32.99079275481218
            ],
            [
              -60.6622061263992,
              -32.99132959679957
            ],
            [
              -60.67371261711244,
              -32.9917319161911
            ]
          ]
        ]
      }
    },
    {
      "type": "Feature",
      "properties": {
        "id": 20,
        "Subzona": "3C",
        "Zona": 3,
        "name": "3C",
        "color": "#a52714",
        "fillColor": "#a52714",
        "fillOpacity": 0.3
      },
      "geometry": {
        "type": "Polygon",
        "coordinates": [
          [
            [
              -60.64695884227836,
              -32.99079275481218
            ],
            [
              -60.64424893376062,
              -32.97810341743223
            ],
            [
              -60.64432563634655,
              -32.9778588574015
            ],
            [
              -60.64460437203362,
              -32.977474813535196
            ],
            [
              -60.642539899358766,
              -32.96925364567008
            ],
            [
              -60.63867218437757,
              -32.96906252655616
            ],
            [
              -60.638296946343395,
              -32.969132216010244
            ],
            [
              -60.63382305411035,
              -32.96996301515985
            ],
            [
              -60.63115409357323,
              -32.9704582748946
            ],
            [
              -60.62358664979144,
              -32.97186217142614
            ],
            [
              -60.62346729704241,
              -32.971444400318795
            ],
            [
              -60.61759562122067,
              -32.97245384959783
            ],
            [
              -60.61716499999997,
              -32.98358899999251
            ],
            [
              -60.61603699999992,
              -32.985963999992535
            ],
            [
              -60.61557399999996,
              -32.992502999992524
            ],
            [
              -60.61487499999996,
              -32.99330799999256
            ],
            [
              -60.61300399999997,
              -32.99479099999248
            ],
            [
              -60.61182699999994,
              -32.997612999992526
            ],
            [
              -60.61194599999997,
              -32.99812299999251
            ],
            [
              -60.613787999999964,
              -32.99889599999252
            ],
            [
              -60.61558301994022,
              -32.99755289688107
            ],
            [
              -60.615440994771255,
              -32.99668659744206
            ],
            [
              -60.615885240361266,
              -32.99645347366376
            ],
            [
              -60.61692370003734,
              -32.996203071197634
            ],
            [
              -60.61746799564075,
              -32.99523473629894
            ],
            [
              -60.6206597809166,
              -32.99685535880049
            ],
            [
              -60.62112118640788,
              -32.99661124219295
            ],
            [
              -60.62163439727378,
              -32.99689297578104
            ],
            [
              -60.62151774005348,
              -32.997689825336614
            ],
            [
              -60.623534999999976,
              -32.99807376805524
            ],
            [
              -60.62494685701297,
              -32.99901504591077
            ],
            [
              -60.648939608010096,
              -32.999669655883885
            ],
            [
              -60.64695884227836,
              -32.99079275481218
            ]
          ]
        ]
      }
    },
    {
      "type": "Feature",
      "properties": {
        "id": 21,
        "Subzona": "3E",
        "Zona": 3,
        "name": "3E",
        "color": "#1a237e",
        "fillColor": "#1a237e",
        "fillOpacity": 0.3
      },
      "geometry": {
        "type": "Polygon",
        "coordinates": [
          [
            [
              -60.67371261711244,
              -32.9917319161911
            ],
            [
              -60.6622061263992,
              -32.99132959679957
            ],
            [
              -60.64695884227836,
              -32.99079275481218
            ],
            [
              -60.648939608010096,
              -32.999669655883885
            ],
            [
              -60.65237348440037,
              -33.01638768247371
            ],
            [
              -60.653642699615844,
              -33.016325534987004
            ],
            [
              -60.65636724419552,
              -33.016041188601875
            ],
            [
              -60.659489361804006,
              -33.01559015452395
            ],
            [
              -60.66154738689423,
              -33.01532541605583
            ],
            [
              -60.66371065190385,
              -33.014844962731694
            ],
            [
              -60.66549973053344,
              -33.014315480525966
            ],
            [
              -60.66698478272923,
              -33.01371735791375
            ],
            [
              -60.66825935508625,
              -33.01305059349841
            ],
            [
              -60.674012470679415,
              -33.00971669580032
            ],
            [
              -60.677239828207284,
              -33.00779474456506
            ],
            [
              -60.67371261711244,
              -32.9917319161911
            ]
          ]
        ]
      }
    },
    {
      "type": "Feature",
      "properties": {
        "id": 22,
        "Subzona": "3D",
        "Zona": 3,
        "name": "3D",
        "color": "#ffea00",
        "fillColor": "#ffea00",
        "fillOpacity": 0.3
      },
      "geometry": {
        "type": "Polygon",
        "coordinates": [
          [
            [
              -60.65237348440037,
              -33.01638768247371
            ],
            [
              -60.65424399999994,
              -33.02534399999252
            ],
            [
              -60.65554399999997,
              -33.0260559999925
            ],
            [
              -60.656550999999965,
              -33.02617999999256
            ],
            [
              -60.657512999999994,
              -33.02582399999256
            ],
            [
              -60.65847699999996,
              -33.02566499999252
            ],
            [
              -60.65976999999996,
              -33.025880999992516
            ],
            [
              -60.66168199999998,
              -33.02643499999251
            ],
            [
              -60.66206599999997,
              -33.026132999992555
            ],
            [
              -60.66393799999995,
              -33.02629499999252
            ],
            [
              -60.66494399999996,
              -33.02622999999249
            ],
            [
              -60.66536999999997,
              -33.026115999992534
            ],
            [
              -60.669381999999956,
              -33.02619699999254
            ],
            [
              -60.67113699999997,
              -33.02727399999254
            ],
            [
              -60.672062999999994,
              -33.027448999992515
            ],
            [
              -60.67278699999994,
              -33.02771899999253
            ],
            [
              -60.67350899999996,
              -33.02768099999253
            ],
            [
              -60.67465000000002,
              -33.02849399999254
            ],
            [
              -60.67505499999996,
              -33.02835499999251
            ],
            [
              -60.675880999999976,
              -33.028598999992525
            ],
            [
              -60.676661999999986,
              -33.02846599999252
            ],
            [
              -60.677107999999954,
              -33.028180999992514
            ],
            [
              -60.67783599999997,
              -33.027670999992516
            ],
            [
              -60.67813999999999,
              -33.02756699999253
            ],
            [
              -60.67833299999995,
              -33.02759999999252
            ],
            [
              -60.67848799999995,
              -33.02782199999253
            ],
            [
              -60.67829599999998,
              -33.02801199999252
            ],
            [
              -60.678206999999965,
              -33.028362999992524
            ],
            [
              -60.67843299999999,
              -33.02872199999252
            ],
            [
              -60.67957999999999,
              -33.02843299999254
            ],
            [
              -60.68085699999998,
              -33.029179999992515
            ],
            [
              -60.68189299999997,
              -33.029513999992524
            ],
            [
              -60.68320399999999,
              -33.02961799999253
            ],
            [
              -60.68388799999998,
              -33.030068999992515
            ],
            [
              -60.68406400000002,
              -33.030392999992536
            ],
            [
              -60.68399699999997,
              -33.03091599999252
            ],
            [
              -60.68485499999999,
              -33.03140799999252
            ],
            [
              -60.68556199999996,
              -33.032300999992515
            ],
            [
              -60.68630199999998,
              -33.03333399999256
            ],
            [
              -60.68712099999997,
              -33.03404899999253
            ],
            [
              -60.68848799999998,
              -33.03459799999252
            ],
            [
              -60.689637999999974,
              -33.03483199999252
            ],
            [
              -60.69003867814085,
              -33.034841158549305
            ],
            [
              -60.68990719249283,
              -33.02812207477846
            ],
            [
              -60.68990552245647,
              -33.02803672403371
            ],
            [
              -60.689868762608114,
              -33.026157976114284
            ],
            [
              -60.68973768439961,
              -33.014796772480615
            ],
            [
              -60.6896798943415,
              -33.01009508529606
            ],
            [
              -60.68942905647209,
              -33.001170887375906
            ],
            [
              -60.68941029474825,
              -33.00050329451697
            ],
            [
              -60.68921564010658,
              -33.00007709641373
            ],
            [
              -60.68914540716524,
              -32.99236195139185
            ],
            [
              -60.68914367591213,
              -32.992171738058296
            ],
            [
              -60.68909546767276,
              -32.98657388698249
            ],
            [
              -60.68907874408541,
              -32.98260440078791
            ],
            [
              -60.689076356696475,
              -32.98229719914464
            ],
            [
              -60.67126939978385,
              -32.981969648668205
            ],
            [
              -60.67371261711244,
              -32.9917319161911
            ],
            [
              -60.677239828207284,
              -33.00779474456506
            ],
            [
              -60.674012470679415,
              -33.00971669580032
            ],
            [
              -60.66825935508625,
              -33.01305059349841
            ],
            [
              -60.66698478272923,
              -33.01371735791375
            ],
            [
              -60.66549973053344,
              -33.014315480525966
            ],
            [
              -60.66371065190385,
              -33.014844962731694
            ],
            [
              -60.66154738689423,
              -33.01532541605583
            ],
            [
              -60.659489361804006,
              -33.01559015452395
            ],
            [
              -60.65636724419552,
              -33.016041188601875
            ],
            [
              -60.653642699615844,
              -33.016325534987004
            ],
            [
              -60.65237348440037,
              -33.01638768247371
            ]
          ]
        ]
      }
    },
    {
      "type": "Feature",
      "properties": {
        "id": 23,
        "Subzona": "3F",
        "Zona": 3,
        "name": "3F",
        "color": "#ffea00",
        "fillColor": "#ffea00",
        "fillOpacity": 0.3
      },
      "geometry": {
        "type": "Polygon",
        "coordinates": [
          [
            [
              -60.648939608010096,
              -32.999669655883885
            ],
            [
              -60.62494685701297,
              -32.99901504591077
            ],
            [
              -60.623534999999976,
              -32.99807376805524
            ],
            [
              -60.62151774005348,
              -32.997689825336614
            ],
            [
              -60.62163439727378,
              -32.99689297578104
            ],
            [
              -60.62112118640788,
              -32.99661124219295
            ],
            [
              -60.6206597809166,
              -32.99685535880049
            ],
            [
              -60.61746799564075,
              -32.99523473629894
            ],
            [
              -60.61692370003734,
              -32.996203071197634
            ],
            [
              -60.615885240361266,
              -32.99645347366376
            ],
            [
              -60.615440994771255,
              -32.99668659744206
            ],
            [
              -60.61558301994022,
              -32.99755289688107
            ],
            [
              -60.613787999999964,
              -32.99889599999252
            ],
            [
              -60.614537999999925,
              -32.999554999992526
            ],
            [
              -60.61566499999994,
              -33.00036399999254
            ],
            [
              -60.616509999999934,
              -33.000840999992555
            ],
            [
              -60.61735599999996,
              -33.00109299999254
            ],
            [
              -60.61879999999994,
              -33.00154099999252
            ],
            [
              -60.619754999999955,
              -33.00222699999254
            ],
            [
              -60.62008799999994,
              -33.003066999992534
            ],
            [
              -60.62090699999995,
              -33.00478799999251
            ],
            [
              -60.621839999999956,
              -33.00469899999251
            ],
            [
              -60.62339099999993,
              -33.004448999992476
            ],
            [
              -60.624911999999966,
              -33.00480599999254
            ],
            [
              -60.62513099999997,
              -33.004681999992556
            ],
            [
              -60.62556499999995,
              -33.00470799999253
            ],
            [
              -60.62599299999994,
              -33.00485199999254
            ],
            [
              -60.63025786854756,
              -33.00834240567157
            ],
            [
              -60.631593999999936,
              -33.00908599999252
            ],
            [
              -60.63353999999996,
              -33.01105199999254
            ],
            [
              -60.63345799999997,
              -33.01253599999252
            ],
            [
              -60.63428899999995,
              -33.01419899999255
            ],
            [
              -60.63495799999997,
              -33.01440999999252
            ],
            [
              -60.63719699999998,
              -33.01529899999253
            ],
            [
              -60.63738599999995,
              -33.016517999992516
            ],
            [
              -60.63747799999996,
              -33.01725399999252
            ],
            [
              -60.63815899999998,
              -33.01735799999253
            ],
            [
              -60.63874999999995,
              -33.01795099999252
            ],
            [
              -60.63910599999994,
              -33.01801999999255
            ],
            [
              -60.63944999999997,
              -33.017795999992515
            ],
            [
              -60.643440999999974,
              -33.01858099999254
            ],
            [
              -60.64411499999997,
              -33.018970999992526
            ],
            [
              -60.646135999999906,
              -33.02049799999254
            ],
            [
              -60.64946599999994,
              -33.02265799999251
            ],
            [
              -60.65424399999994,
              -33.02534399999252
            ],
            [
              -60.65237348440037,
              -33.01638768247371
            ],
            [
              -60.648939608010096,
              -32.999669655883885
            ]
          ]
        ]
      }
    }
  ]
}