{
  "type": "FeatureCollection",
  "features": [
    {
      "type": "Feature",
      "properties": {
        "ZONAS": "2",
        "COUNT": 56,
        "name": "Zona 2",
        "color": "#ff5252",
        "fillColor": "#ff5252",
        "fillOpacity": 0.3
      },
      "geometry": {
        "type": "Polygon",
        "coordinates": [
          [
            [
              -60.63382305411035,
              -32.96996301515985
            ],
            [
              -60.638296946343395,
              -32.969132216010244
            ],
            [
              -60.63867218437757,
              -32.96906252655615
            ],
            [
              -60.642539899358766,
              -32.96925364567009
            ],
            [
              -60.64560453525549,
              -32.968893257177506
            ],
            [
              -60.64784675241788,
              -32.96850108799617
            ],
            [
              -60.6482231079592,
              -32.96843525790028
            ],
            [
              -60.65212572752494,
              -32.96775256390181
            ],
            [
              -60.65375455642921,
              -32.96746792475816
            ],
            [
              -60.658827981214905,
              -32.96657981475013
            ],
            [
              -60.65933751046853,
              -32.96649064219475
            ],
            [
              -60.666779443412096,
              -32.96518797570629
            ],
            [
              -60.66725943909404,
              -32.96510393883415
            ],
            [
              -60.67108470323046,
              -32.96443414598901
            ],
            [
              -60.67144652071448,
              -32.96437078617473
            ],
            [
              -60.67688472538802,
              -32.963395941438584
            ],
            [
              -60.682055417680324,
              -32.962474499933464
            ],
            [
              -60.68495299999993,
              -32.961948999992536
            ],
            [
              -60.68553599999997,
              -32.96184299999248
            ],
            [
              -60.68640599999991,
              -32.9616869999925
            ],
            [
              -60.686803999999974,
              -32.96160399999256
            ],
            [
              -60.687159000000015,
              -32.961522999992525
            ],
            [
              -60.68735299999998,
              -32.96146299999254
            ],
            [
              -60.68757299999991,
              -32.961385999992494
            ],
            [
              -60.68778100000001,
              -32.961316999992505
            ],
            [
              -60.68796699999993,
              -32.961245999992535
            ],
            [
              -60.68820999999996,
              -32.961147999992505
            ],
            [
              -60.688518999999935,
              -32.96100599999253
            ],
            [
              -60.68881399999988,
              -32.96085599999253
            ],
            [
              -60.68906599999993,
              -32.96071499999252
            ],
            [
              -60.68911599917879,
              -32.960699999571425
            ],
            [
              -60.68946999999999,
              -32.960464999992524
            ],
            [
              -60.68982000000003,
              -32.96021599999253
            ],
            [
              -60.68997000000001,
              -32.960100999992505
            ],
            [
              -60.69006799999994,
              -32.96002499999253
            ],
            [
              -60.69031999999997,
              -32.95980499999252
            ],
            [
              -60.690573999999906,
              -32.95955999999255
            ],
            [
              -60.690816999999974,
              -32.95930299999252
            ],
            [
              -60.6910411594374,
              -32.959038601046075
            ],
            [
              -60.69120600000003,
              -32.95880899999248
            ],
            [
              -60.691314633032626,
              -32.95865366982924
            ],
            [
              -60.69221999999999,
              -32.9587279999925
            ],
            [
              -60.692207999999944,
              -32.95916799999253
            ],
            [
              -60.69219099999994,
              -32.959404999992486
            ],
            [
              -60.692154999999936,
              -32.9596539999925
            ],
            [
              -60.69213499999997,
              -32.95979799999252
            ],
            [
              -60.69207499999997,
              -32.960174999992496
            ],
            [
              -60.69192899999988,
              -32.963976999992504
            ],
            [
              -60.69196899973356,
              -32.96716799996474
            ],
            [
              -60.69187999999994,
              -32.96841299999251
            ],
            [
              -60.69084882257151,
              -32.97102382069539
            ],
            [
              -60.68946145132123,
              -32.974376081981276
            ],
            [
              -60.68915971257035,
              -32.97536925233367
            ],
            [
              -60.689094042414006,
              -32.97574501085534
            ],
            [
              -60.689039926979284,
              -32.97611314935416
            ],
            [
              -60.68903617112431,
              -32.97613869975495
            ],
            [
              -60.68899633345371,
              -32.9764097073482
            ],
            [
              -60.68904653654349,
              -32.97845964200142
            ],
            [
              -60.68907635669645,
              -32.98229719914464
            ],
            [
              -60.68907874408541,
              -32.98260440078792
            ],
            [
              -60.68909546767278,
              -32.98657388698249
            ],
            [
              -60.68913980362649,
              -32.991746282805934
            ],
            [
              -60.68914540716521,
              -32.99236195139184
            ],
            [
              -60.68921564010658,
              -33.00007709641374
            ],
            [
              -60.6894102947482,
              -33.000503294516996
            ],
            [
              -60.6896798943415,
              -33.01009508529606
            ],
            [
              -60.689737684399624,
              -33.01479677248059
            ],
            [
              -60.689812550139955,
              -33.02128640653716
            ],
            [
              -60.689868762608135,
              -33.026157976114284
            ],
            [
              -60.68990552245647,
              -33.02803672403371
            ],
            [
              -60.689907192492875,
              -33.02812207477846
            ],
            [
              -60.69003867814085,
              -33.03484115854929
            ],
            [
              -60.69016299999996,
              -33.034843999992525
            ],
            [
              -60.690514999999955,
              -33.03522199999253
            ],
            [
              -60.690903999999954,
              -33.03569599999251
            ],
            [
              -60.690985999999974,
              -33.036407999992534
            ],
            [
              -60.69173999999994,
              -33.03758699999251
            ],
            [
              -60.69204199999994,
              -33.0378449999925
            ],
            [
              -60.69251199999992,
              -33.03803599999253
            ],
            [
              -60.69416399999998,
              -33.03795499999255
            ],
            [
              -60.69457099999995,
              -33.037771999992515
            ],
            [
              -60.695539999999966,
              -33.03795499999253
            ],
            [
              -60.69605499999995,
              -33.03810299999249
            ],
            [
              -60.69690699999994,
              -33.038689999992535
            ],
            [
              -60.697636999999936,
              -33.03896699999253
            ],
            [
              -60.69814999999993,
              -33.03891399999252
            ],
            [
              -60.698740999999984,
              -33.03896799999254
            ],
            [
              -60.701855999999935,
              -33.03471299999253
            ],
            [
              -60.70425599999995,
              -33.03107599999251
            ],
            [
              -60.70723199999995,
              -33.02674999999251
            ],
            [
              -60.70741899999995,
              -33.026590999992536
            ],
            [
              -60.70909699999991,
              -33.02479499999252
            ],
            [
              -60.71026999999995,
              -33.02482399999252
            ],
            [
              -60.71281299999992,
              -33.02197899999254
            ],
            [
              -60.71561699999994,
              -33.01872699999254
            ],
            [
              -60.71702899999996,
              -33.01568499999253
            ],
            [
              -60.71717399999995,
              -33.015647999992524
            ],
            [
              -60.71931699999993,
              -33.01105499999253
            ],
            [
              -60.720919999999964,
              -33.00752899999252
            ],
            [
              -60.72673799999996,
              -33.00766099999254
            ],
            [
              -60.729886999999984,
              -32.999514999992535
            ],
            [
              -60.73312199999998,
              -32.990658999992505
            ],
            [
              -60.735801999999964,
              -32.98378999999254
            ],
            [
              -60.73620399999995,
              -32.97972399999251
            ],
            [
              -60.734465999999976,
              -32.97398799999251
            ],
            [
              -60.73268999999996,
              -32.96437599999251
            ],
            [
              -60.76084599999999,
              -32.96525399999255
            ],
            [
              -60.76150699999995,
              -32.953397999992504
            ],
            [
              -60.76050399999997,
              -32.95094699999249
            ],
            [
              -60.76004699999999,
              -32.95028199999253
            ],
            [
              -60.75754499999997,
              -32.948650999992516
            ],
            [
              -60.74911676745838,
              -32.94800036397368
            ],
            [
              -60.74627971919025,
              -32.94845865409596
            ],
            [
              -60.743152975729934,
              -32.94899020404999
            ],
            [
              -60.741652158057875,
              -32.949163347866865
            ],
            [
              -60.74047387534358,
              -32.94931244406131
            ],
            [
              -60.73810095587647,
              -32.949291416055274
            ],
            [
              -60.73582368456974,
              -32.949120809223594
            ],
            [
              -60.735653440829246,
              -32.94910805335504
            ],
            [
              -60.735252238661474,
              -32.94907799150937
            ],
            [
              -60.733996936143114,
              -32.94902357853359
            ],
            [
              -60.7323771576225,
              -32.94900751471984
            ],
            [
              -60.73129267349302,
              -32.94906589538802
            ],
            [
              -60.73051879704464,
              -32.94906359316541
            ],
            [
              -60.72932723288833,
              -32.949060048354134
            ],
            [
              -60.728257088130285,
              -32.94902974325584
            ],
            [
              -60.72643863940678,
              -32.94896573147898
            ],
            [
              -60.724341372546846,
              -32.94876695121827
            ],
            [
              -60.7220550752812,
              -32.9484994423556
            ],
            [
              -60.72141947625327,
              -32.94849362991829
            ],
            [
              -60.72054200427825,
              -32.94848560028102
            ],
            [
              -60.71987680603209,
              -32.94840816733299
            ],
            [
              -60.71803024910059,
              -32.94852569524601
            ],
            [
              -60.71208576184006,
              -32.94836588195168
            ],
            [
              -60.7021037142799,
              -32.94815685299443
            ],
            [
              -60.702063469958546,
              -32.948156008641796
            ],
            [
              -60.692560912435006,
              -32.947899051558856
            ],
            [
              -60.69276321881398,
              -32.94215112715255
            ],
            [
              -60.69277285721636,
              -32.941852918506314
            ],
            [
              -60.692901856683406,
              -32.93788391849797
            ],
            [
              -60.69293961526328,
              -32.93678294929705
            ],
            [
              -60.693127875541876,
              -32.9309407579493
            ],
            [
              -60.67783664300439,
              -32.93255158546487
            ],
            [
              -60.677740680266346,
              -32.93256168840555
            ],
            [
              -60.67169031095756,
              -32.93319700928233
            ],
            [
              -60.66310772539077,
              -32.93123703587854
            ],
            [
              -60.66248439735702,
              -32.93100097779683
            ],
            [
              -60.66208381813983,
              -32.92982972545575
            ],
            [
              -60.66274737504325,
              -32.92979894548501
            ],
            [
              -60.66314885454831,
              -32.92949907768095
            ],
            [
              -60.66331166309735,
              -32.929139769462196
            ],
            [
              -60.66321146136688,
              -32.92874046095843
            ],
            [
              -60.66293980756657,
              -32.928432696300455
            ],
            [
              -60.66256879051705,
              -32.92828683529861
            ],
            [
              -60.66159507752231,
              -32.92493909957756
            ],
            [
              -60.66146808279585,
              -32.92450245741921
            ],
            [
              -60.6607089174745,
              -32.923858885514015
            ],
            [
              -60.65310099999995,
              -32.928099999992526
            ],
            [
              -60.65142499999994,
              -32.92858599999251
            ],
            [
              -60.648684999999944,
              -32.93048999999253
            ],
            [
              -60.64859899999995,
              -32.930472999992524
            ],
            [
              -60.64641299999997,
              -32.931703999992514
            ],
            [
              -60.638917999999926,
              -32.9362239999925
            ],
            [
              -60.637425999999955,
              -32.93715399999249
            ],
            [
              -60.63344199999997,
              -32.94067899999252
            ],
            [
              -60.62904699999993,
              -32.945050999992525
            ],
            [
              -60.62634299999995,
              -32.948477999992505
            ],
            [
              -60.62560522399621,
              -32.94962011731685
            ],
            [
              -60.623520999999926,
              -32.95285399999252
            ],
            [
              -60.62158999999996,
              -32.95651899999252
            ],
            [
              -60.61985999999994,
              -32.960589999992514
            ],
            [
              -60.61862999999996,
              -32.964941999992526
            ],
            [
              -60.61781799999994,
              -32.96931099999249
            ],
            [
              -60.61763299999995,
              -32.97161399999251
            ],
            [
              -60.61783099999995,
              -32.97188199999252
            ],
            [
              -60.61760999999992,
              -32.97208199999251
            ],
            [
              -60.61759562122067,
              -32.97245384959781
            ],
            [
              -60.623467297042424,
              -32.97144440031878
            ],
            [
              -60.623586649791456,
              -32.971862171426125
            ],
            [
              -60.631154093573244,
              -32.9704582748946
            ],
            [
              -60.63382305411035,
              -32.96996301515985
            ]
          ]
        ]
      }
    },
    {
      "type": "Feature",
      "properties": {
        "ZONAS": "1",
        "COUNT": 74,
        "name": "Zona 1",
        "color": "#7cb342",
        "fillColor": "#7cb342",
        "fillOpacity": 0.3
      },
      "geometry": {
        "type": "Polygon",
        "coordinates": [
          [
            [
              -60.67169031095756,
              -32.93319700928233
            ],
            [
              -60.677740680266346,
              -32.93256168840555
            ],
            [
              -60.67783664300439,
              -32.93255158546487
            ],
            [
              -60.693127875541876,
              -32.9309407579493
            ],
            [
              -60.69293961526328,
              -32.93678294929705
            ],
            [
              -60.692901856683406,
              -32.93788391849797
            ],
            [
              -60.69277285721636,
              -32.941852918506314
            ],
            [
              -60.69276321881398,
              -32.94215112715255
            ],
            [
              -60.692560912435006,
              -32.947899051558856
            ],
            [
              -60.702063469958546,
              -32.948156008641796
            ],
            [
              -60.7021037142799,
              -32.94815685299443
            ],
            [
              -60.71208576184006,
              -32.94836588195168
            ],
            [
              -60.71803024910059,
              -32.94852569524601
            ],
            [
              -60.71987680603209,
              -32.94840816733299
            ],
            [
              -60.72054200427825,
              -32.94848560028102
            ],
            [
              -60.72141947625327,
              -32.94849362991829
            ],
            [
              -60.7220550752812,
              -32.9484994423556
            ],
            [
              -60.724341372546846,
              -32.94876695121827
            ],
            [
              -60.72643863940678,
              -32.94896573147898
            ],
            [
              -60.728257088130285,
              -32.94902974325584
            ],
            [
              -60.72932723288833,
              -32.949060048354134
            ],
            [
              -60.73051879704464,
              -32.94906359316541
            ],
            [
              -60.73129267349302,
              -32.94906589538802
            ],
            [
              -60.7323771576225,
              -32.94900751471984
            ],
            [
              -60.733996936143114,
              -32.94902357853359
            ],
            [
              -60.735252238661474,
              -32.94907799150937
            ],
            [
              -60.735653440829246,
              -32.94910805335504
            ],
            [
              -60.73582368456974,
              -32.949120809223594
            ],
            [
              -60.73810095587647,
              -32.949291416055274
            ],
            [
              -60.74047387534358,
              -32.94931244406131
            ],
            [
              -60.741652158057875,
              -32.949163347866865
            ],
            [
              -60.743152975729934,
              -32.94899020404999
            ],
            [
              -60.74627971919025,
              -32.94845865409596
            ],
            [
              -60.74911676745838,
              -32.94800036397368
            ],
            [
              -60.75754499999997,
              -32.948650999992516
            ],
            [
              -60.76174799999996,
              -32.94879999999251
            ],
            [
              -60.783197999999956,
              -32.9493149999925
            ],
            [
              -60.78358000000001,
              -32.94905599999252
            ],
            [
              -60.78341099999994,
              -32.94830699999252
            ],
            [
              -60.782231999999944,
              -32.94758399999251
            ],
            [
              -60.781841999999955,
              -32.946852999992494
            ],
            [
              -60.78133499999997,
              -32.94677099999253
            ],
            [
              -60.778246999999965,
              -32.945169999992494
            ],
            [
              -60.77766199999995,
              -32.945141999992515
            ],
            [
              -60.77408899999993,
              -32.941205999992505
            ],
            [
              -60.774438999999944,
              -32.93967299999252
            ],
            [
              -60.77372699999998,
              -32.93913099999251
            ],
            [
              -60.77090599999992,
              -32.9380229999925
            ],
            [
              -60.770476999999936,
              -32.9373259999925
            ],
            [
              -60.769103999999956,
              -32.93729799999251
            ],
            [
              -60.76910599999992,
              -32.93668599999249
            ],
            [
              -60.76973199999994,
              -32.936724999992514
            ],
            [
              -60.76973099999993,
              -32.93656899999254
            ],
            [
              -60.76890799999998,
              -32.93600999999251
            ],
            [
              -60.76881199999995,
              -32.93392799999253
            ],
            [
              -60.768278999999964,
              -32.9331269999925
            ],
            [
              -60.76671199999992,
              -32.93190299999249
            ],
            [
              -60.76623699999994,
              -32.93112599999254
            ],
            [
              -60.76607799999996,
              -32.93084099999251
            ],
            [
              -60.76610799999994,
              -32.9293369999925
            ],
            [
              -60.765913999999924,
              -32.92753899999253
            ],
            [
              -60.765761999999974,
              -32.927123999992524
            ],
            [
              -60.765325999999966,
              -32.92689899999248
            ],
            [
              -60.764813999999966,
              -32.9268179999925
            ],
            [
              -60.76375099999997,
              -32.92622599999252
            ],
            [
              -60.76345799999996,
              -32.926017999992496
            ],
            [
              -60.76306199999994,
              -32.925450999992506
            ],
            [
              -60.76271799999996,
              -32.92514699999253
            ],
            [
              -60.762159999999966,
              -32.92456999999249
            ],
            [
              -60.76185499999998,
              -32.92379799999251
            ],
            [
              -60.764880999999974,
              -32.923518999992496
            ],
            [
              -60.76847499999999,
              -32.92313699999251
            ],
            [
              -60.77477999999996,
              -32.92248599999251
            ],
            [
              -60.776964999999954,
              -32.92193299999252
            ],
            [
              -60.78247599999994,
              -32.9154879999925
            ],
            [
              -60.78823599999998,
              -32.90874599999249
            ],
            [
              -60.79710199999996,
              -32.89686999999251
            ],
            [
              -60.77064099999996,
              -32.89603299999251
            ],
            [
              -60.77102349861437,
              -32.887830458923524
            ],
            [
              -60.77114199999996,
              -32.88528899999252
            ],
            [
              -60.781248999999924,
              -32.8856779999925
            ],
            [
              -60.782035999999934,
              -32.87428899999247
            ],
            [
              -60.69926799999993,
              -32.870874999992495
            ],
            [
              -60.69799899999994,
              -32.8712049999925
            ],
            [
              -60.69275299999996,
              -32.87053099999249
            ],
            [
              -60.691786999999955,
              -32.86959799999249
            ],
            [
              -60.69117799999995,
              -32.8692499999925
            ],
            [
              -60.689743999999955,
              -32.86944899999251
            ],
            [
              -60.68820099999999,
              -32.87007899999251
            ],
            [
              -60.687546999999945,
              -32.873414999992505
            ],
            [
              -60.687183999999924,
              -32.8747019999925
            ],
            [
              -60.68756499999996,
              -32.87525699999253
            ],
            [
              -60.68691299999995,
              -32.876360999992485
            ],
            [
              -60.68678399999992,
              -32.87675999999251
            ],
            [
              -60.68659399999994,
              -32.87904099999249
            ],
            [
              -60.68632599999995,
              -32.88091899999248
            ],
            [
              -60.686566999999954,
              -32.8829079999925
            ],
            [
              -60.686784999999965,
              -32.88421399999249
            ],
            [
              -60.686677999999944,
              -32.8850279999925
            ],
            [
              -60.68644999999995,
              -32.88691999999252
            ],
            [
              -60.68636299999992,
              -32.887923999992495
            ],
            [
              -60.685880999999966,
              -32.889169999992504
            ],
            [
              -60.684864999999995,
              -32.89194499999249
            ],
            [
              -60.68460299999994,
              -32.892216999992506
            ],
            [
              -60.684267999999975,
              -32.892856999992524
            ],
            [
              -60.683228999999976,
              -32.892845999992495
            ],
            [
              -60.682927999999976,
              -32.89303899999251
            ],
            [
              -60.68278399999997,
              -32.893900999992496
            ],
            [
              -60.68237999999994,
              -32.89543299999247
            ],
            [
              -60.68175499999992,
              -32.89747199999249
            ],
            [
              -60.68080299999995,
              -32.899038999992484
            ],
            [
              -60.67947999999989,
              -32.901421999992515
            ],
            [
              -60.67670799999993,
              -32.90397699999249
            ],
            [
              -60.67627999999993,
              -32.9048719999925
            ],
            [
              -60.67595299999997,
              -32.90653099999248
            ],
            [
              -60.67510599999998,
              -32.9069509999925
            ],
            [
              -60.673872999999965,
              -32.91104899999252
            ],
            [
              -60.672537999999925,
              -32.91196499999249
            ],
            [
              -60.671947999999986,
              -32.9134749999925
            ],
            [
              -60.67106499999994,
              -32.9141649999925
            ],
            [
              -60.66688199999993,
              -32.92041699999251
            ],
            [
              -60.6607089174745,
              -32.923858885514015
            ],
            [
              -60.66146808279585,
              -32.92450245741921
            ],
            [
              -60.66159507752231,
              -32.92493909957756
            ],
            [
              -60.66256879051705,
              -32.92828683529861
            ],
            [
              -60.66293980756657,
              -32.928432696300455
            ],
            [
              -60.66321146136688,
              -32.92874046095843
            ],
            [
              -60.66331166309735,
              -32.929139769462196
            ],
            [
              -60.66314885454831,
              -32.92949907768095
            ],
            [
              -60.66274737504325,
              -32.92979894548501
            ],
            [
              -60.66208381813983,
              -32.92982972545575
            ],
            [
              -60.66248439735702,
              -32.93100097779683
            ],
            [
              -60.66310772539077,
              -32.93123703587854
            ],
            [
              -60.67169031095756,
              -32.93319700928233
            ]
          ]
        ]
      }
    },
    {
      "type": "Feature",
      "properties": {
        "ZONAS": "3",
        "COUNT": 62,
        "name": "Zona 3",
        "color": "#0288d1",
        "fillColor": "#0288d1",
        "fillOpacity": 0.3
      },
      "geometry": {
        "type": "Polygon",
        "coordinates": [
          [
            [
              -60.61557399999995,
              -32.992502999992524
            ],
            [
              -60.61487499999995,
              -32.993307999992545
            ],
            [
              -60.61300399999997,
              -32.9947909999925
            ],
            [
              -60.61182699999993,
              -32.997612999992526
            ],
            [
              -60.61194599999994,
              -32.99812299999251
            ],
            [
              -60.61378799999995,
              -32.99889599999252
            ],
            [
              -60.614537999999925,
              -32.999554999992526
            ],
            [
              -60.61566499999994,
              -33.00036399999254
            ],
            [
              -60.61650999999992,
              -33.000840999992555
            ],
            [
              -60.617355999999944,
              -33.00109299999255
            ],
            [
              -60.61879999999994,
              -33.00154099999252
            ],
            [
              -60.61975499999993,
              -33.00222699999254
            ],
            [
              -60.620087999999924,
              -33.00306699999252
            ],
            [
              -60.620906999999946,
              -33.0047879999925
            ],
            [
              -60.621839999999956,
              -33.00469899999251
            ],
            [
              -60.62339099999992,
              -33.004448999992505
            ],
            [
              -60.624911999999966,
              -33.004805999992534
            ],
            [
              -60.62513099999995,
              -33.00468199999255
            ],
            [
              -60.625564999999916,
              -33.00470799999253
            ],
            [
              -60.625992999999916,
              -33.00485199999253
            ],
            [
              -60.630222999999944,
              -33.00832299999254
            ],
            [
              -60.63159399999992,
              -33.00908599999251
            ],
            [
              -60.63353999999993,
              -33.01105199999253
            ],
            [
              -60.633457999999955,
              -33.012535999992515
            ],
            [
              -60.634288999999946,
              -33.01419899999254
            ],
            [
              -60.634957999999955,
              -33.01440999999252
            ],
            [
              -60.63719699999995,
              -33.015298999992524
            ],
            [
              -60.63738599999993,
              -33.016517999992516
            ],
            [
              -60.63747799999996,
              -33.01725399999251
            ],
            [
              -60.63815899999998,
              -33.01735799999253
            ],
            [
              -60.63874999999992,
              -33.01795099999251
            ],
            [
              -60.639105999999934,
              -33.01801999999254
            ],
            [
              -60.63944999999995,
              -33.017795999992515
            ],
            [
              -60.643440999999946,
              -33.01858099999254
            ],
            [
              -60.64411499999994,
              -33.018970999992526
            ],
            [
              -60.646135999999906,
              -33.02049799999253
            ],
            [
              -60.64946599999994,
              -33.022657999992504
            ],
            [
              -60.65424399999994,
              -33.02534399999252
            ],
            [
              -60.655543999999956,
              -33.026055999992494
            ],
            [
              -60.656550999999965,
              -33.026179999992536
            ],
            [
              -60.657512999999966,
              -33.02582399999255
            ],
            [
              -60.65847699999996,
              -33.025664999992514
            ],
            [
              -60.65976999999994,
              -33.025880999992516
            ],
            [
              -60.66168199999995,
              -33.02643499999251
            ],
            [
              -60.66206599999997,
              -33.026132999992555
            ],
            [
              -60.66393799999995,
              -33.02629499999252
            ],
            [
              -60.66494399999995,
              -33.026229999992495
            ],
            [
              -60.66536999999994,
              -33.026115999992534
            ],
            [
              -60.66938199999993,
              -33.02619699999254
            ],
            [
              -60.67113699999997,
              -33.027273999992524
            ],
            [
              -60.672062999999994,
              -33.027448999992515
            ],
            [
              -60.67278699999994,
              -33.02771899999253
            ],
            [
              -60.67350899999994,
              -33.02768099999253
            ],
            [
              -60.67464999999997,
              -33.02849399999254
            ],
            [
              -60.675054999999944,
              -33.0283549999925
            ],
            [
              -60.675880999999954,
              -33.02859899999252
            ],
            [
              -60.67666199999996,
              -33.02846599999252
            ],
            [
              -60.67710799999993,
              -33.02818099999251
            ],
            [
              -60.67783599999995,
              -33.027670999992516
            ],
            [
              -60.67813999999998,
              -33.02756699999253
            ],
            [
              -60.678332999999924,
              -33.02759999999252
            ],
            [
              -60.67848799999993,
              -33.02782199999253
            ],
            [
              -60.678295999999946,
              -33.02801199999252
            ],
            [
              -60.67820699999994,
              -33.028362999992524
            ],
            [
              -60.67843299999996,
              -33.02872199999252
            ],
            [
              -60.679579999999945,
              -33.02843299999254
            ],
            [
              -60.68085699999997,
              -33.029179999992515
            ],
            [
              -60.68189299999996,
              -33.029513999992524
            ],
            [
              -60.68320399999996,
              -33.02961799999253
            ],
            [
              -60.68388799999996,
              -33.030068999992515
            ],
            [
              -60.68406399999998,
              -33.03039299999254
            ],
            [
              -60.683996999999934,
              -33.030915999992516
            ],
            [
              -60.68485499999996,
              -33.031407999992524
            ],
            [
              -60.68556199999993,
              -33.03230099999254
            ],
            [
              -60.68630199999996,
              -33.03333399999256
            ],
            [
              -60.68712099999997,
              -33.03404899999253
            ],
            [
              -60.688487999999964,
              -33.03459799999252
            ],
            [
              -60.68963799999996,
              -33.03483199999252
            ],
            [
              -60.69003867814085,
              -33.03484115854929
            ],
            [
              -60.689907192492875,
              -33.02812207477846
            ],
            [
              -60.68990552245647,
              -33.02803672403371
            ],
            [
              -60.689868762608135,
              -33.026157976114284
            ],
            [
              -60.689812550139955,
              -33.02128640653716
            ],
            [
              -60.689737684399624,
              -33.01479677248059
            ],
            [
              -60.6896798943415,
              -33.01009508529606
            ],
            [
              -60.6894102947482,
              -33.000503294516996
            ],
            [
              -60.68921564010658,
              -33.00007709641374
            ],
            [
              -60.68914540716521,
              -32.99236195139184
            ],
            [
              -60.68913980362649,
              -32.991746282805934
            ],
            [
              -60.68909546767278,
              -32.98657388698249
            ],
            [
              -60.68907874408541,
              -32.98260440078792
            ],
            [
              -60.68907635669645,
              -32.98229719914464
            ],
            [
              -60.68904653654349,
              -32.97845964200142
            ],
            [
              -60.68899633345371,
              -32.9764097073482
            ],
            [
              -60.68903617112431,
              -32.97613869975495
            ],
            [
              -60.689039926979284,
              -32.97611314935416
            ],
            [
              -60.689094042414006,
              -32.97574501085534
            ],
            [
              -60.68915971257035,
              -32.97536925233367
            ],
            [
              -60.68946145132123,
              -32.974376081981276
            ],
            [
              -60.69084882257151,
              -32.97102382069539
            ],
            [
              -60.69187999999994,
              -32.96841299999251
            ],
            [
              -60.69196899973356,
              -32.96716799996474
            ],
            [
              -60.69192899999988,
              -32.963976999992504
            ],
            [
              -60.69207499999997,
              -32.960174999992496
            ],
            [
              -60.69213499999997,
              -32.95979799999252
            ],
            [
              -60.692154999999936,
              -32.9596539999925
            ],
            [
              -60.69219099999994,
              -32.959404999992486
            ],
            [
              -60.692207999999944,
              -32.95916799999253
            ],
            [
              -60.69221999999999,
              -32.9587279999925
            ],
            [
              -60.691314633032626,
              -32.95865366982924
            ],
            [
              -60.69120600000003,
              -32.95880899999248
            ],
            [
              -60.6910411594374,
              -32.959038601046075
            ],
            [
              -60.690816999999974,
              -32.95930299999252
            ],
            [
              -60.690573999999906,
              -32.95955999999255
            ],
            [
              -60.69031999999997,
              -32.95980499999252
            ],
            [
              -60.69006799999994,
              -32.96002499999253
            ],
            [
              -60.68997000000001,
              -32.960100999992505
            ],
            [
              -60.68982000000003,
              -32.96021599999253
            ],
            [
              -60.68946999999999,
              -32.960464999992524
            ],
            [
              -60.68911599917879,
              -32.960699999571425
            ],
            [
              -60.68906599999993,
              -32.96071499999252
            ],
            [
              -60.68881399999988,
              -32.96085599999253
            ],
            [
              -60.688518999999935,
              -32.96100599999253
            ],
            [
              -60.68820999999996,
              -32.961147999992505
            ],
            [
              -60.68796699999993,
              -32.961245999992535
            ],
            [
              -60.68778100000001,
              -32.961316999992505
            ],
            [
              -60.68757299999991,
              -32.961385999992494
            ],
            [
              -60.68735299999998,
              -32.96146299999254
            ],
            [
              -60.687159000000015,
              -32.961522999992525
            ],
            [
              -60.686803999999974,
              -32.96160399999256
            ],
            [
              -60.68640599999991,
              -32.9616869999925
            ],
            [
              -60.68553599999997,
              -32.96184299999248
            ],
            [
              -60.68495299999993,
              -32.961948999992536
            ],
            [
              -60.682055417680324,
              -32.962474499933464
            ],
            [
              -60.67688472538802,
              -32.963395941438584
            ],
            [
              -60.67144652071448,
              -32.96437078617473
            ],
            [
              -60.67108470323046,
              -32.96443414598901
            ],
            [
              -60.66725943909404,
              -32.96510393883415
            ],
            [
              -60.666779443412096,
              -32.96518797570629
            ],
            [
              -60.65933751046853,
              -32.96649064219475
            ],
            [
              -60.658827981214905,
              -32.96657981475013
            ],
            [
              -60.65375455642921,
              -32.96746792475816
            ],
            [
              -60.65212572752494,
              -32.96775256390181
            ],
            [
              -60.6482231079592,
              -32.96843525790028
            ],
            [
              -60.64784675241788,
              -32.96850108799617
            ],
            [
              -60.64560453525549,
              -32.968893257177506
            ],
            [
              -60.642539899358766,
              -32.96925364567009
            ],
            [
              -60.63867218437757,
              -32.96906252655615
            ],
            [
              -60.638296946343395,
              -32.969132216010244
            ],
            [
              -60.63382305411035,
              -32.96996301515985
            ],
            [
              -60.631154093573244,
              -32.9704582748946
            ],
            [
              -60.623586649791456,
              -32.971862171426125
            ],
            [
              -60.623467297042424,
              -32.97144440031878
            ],
            [
              -60.61759562122067,
              -32.97245384959781
            ],
            [
              -60.61716499999994,
              -32.98358899999251
            ],
            [
              -60.61603699999992,
              -32.98596399999253
            ],
            [
              -60.61557399999995,
              -32.992502999992524
            ]
          ]
        ]
      }
    }
  ]
}